<gpx xmlns="http://www.topografix.com/GPX/1/1" xmlns:xsi="http://www.w3.org/2001/XMLSchema-instance" xsi:schemaLocation="http://www.topografix.com/GPX/1/1 http://www.topografix.com/GPX/1/1/gpx.xsd" version="1.1" creator="togpx"><metadata/><trk><name>BDO-MILA</name><desc>name=BDO-MILA</desc><trkseg><trkpt lat="63.432975684687484" lon="10.404375871772267"><ele>5.507018566131592</ele></trkpt><trkpt lat="63.4321829" lon="10.4079358"><ele>3.5718692103617298</ele></trkpt><trkpt lat="63.4320389" lon="10.4081611"><ele>4.08963374220699</ele></trkpt><trkpt lat="63.4320533" lon="10.4084294"><ele>4.398730197029636</ele></trkpt><trkpt lat="63.4321973" lon="10.4084401"><ele>4.767208485861672</ele></trkpt><trkpt lat="63.4327443" lon="10.4097168"><ele>5.925119833459149</ele></trkpt><trkpt lat="63.4337951" lon="10.4126136"><ele>5.669613063463427</ele></trkpt><trkpt lat="63.43507816825568" lon="10.416019334507663"><ele>5.876566926264147</ele></trkpt><trkpt lat="63.435534279233686" lon="10.417448438814722"><ele>6.8549276492313</ele></trkpt><trkpt lat="63.4349659" lon="10.4194264"><ele>11.031869393279903</ele></trkpt><trkpt lat="63.4348651" lon="10.4208963"><ele>12.670749057949557</ele></trkpt><trkpt lat="63.4349659" lon="10.4241686"><ele>13.576327273008586</ele></trkpt><trkpt lat="63.4359303" lon="10.4235999"><ele>11.09765417549557</ele></trkpt><trkpt lat="63.436127" lon="10.4238145"><ele>10.425559330871586</ele></trkpt><trkpt lat="63.4366068" lon="10.4235034"><ele>10.79028530181233</ele></trkpt><trkpt lat="63.4368323" lon="10.4237931"><ele>10.980155752838987</ele></trkpt><trkpt lat="63.4373456" lon="10.4250054"><ele>11.087892029650876</ele></trkpt><trkpt lat="63.4376479" lon="10.4256706"><ele>11.281164978145325</ele></trkpt><trkpt lat="63.4387849" lon="10.4283635"><ele>12.369042882546042</ele></trkpt><trkpt lat="63.4389768" lon="10.4280685"><ele>12.3237347667556</ele></trkpt><trkpt lat="63.4391807" lon="10.4291575"><ele>12.243212831175464</ele></trkpt><trkpt lat="63.4394134" lon="10.4301714"><ele>12.705867491454418</ele></trkpt><trkpt lat="63.4394949" lon="10.4302357"><ele>12.84611534994245</ele></trkpt><trkpt lat="63.4396292" lon="10.4308365"><ele>13.333514155508936</ele></trkpt><trkpt lat="63.4398091" lon="10.4317109"><ele>14.143389612528358</ele></trkpt><trkpt lat="63.440061" lon="10.4333846"><ele>15.77602246469293</ele></trkpt><trkpt lat="63.4403824" lon="10.43626"><ele>17.498994288253108</ele></trkpt><trkpt lat="63.4405479" lon="10.4382931"><ele>17.94311628864839</ele></trkpt><trkpt lat="63.4406247" lon="10.4404603"><ele>19.016681751355193</ele></trkpt><trkpt lat="63.4406654" lon="10.4433946"><ele>20.9296468515278</ele></trkpt><trkpt lat="63.4408453" lon="10.4432713"><ele>20.255464881721004</ele></trkpt><trkpt lat="63.4409221" lon="10.4431264"><ele>19.895447733321905</ele></trkpt><trkpt lat="63.4410564" lon="10.4431425"><ele>19.413551070993897</ele></trkpt><trkpt lat="63.4410468" lon="10.4428475"><ele>18.939694769159793</ele></trkpt><trkpt lat="63.4412003" lon="10.442134"><ele>17.778407677647042</ele></trkpt><trkpt lat="63.4412962" lon="10.44156"><ele>17.266556115754472</ele></trkpt><trkpt lat="63.441409" lon="10.4410933"><ele>16.82340223382803</ele></trkpt><trkpt lat="63.4415241" lon="10.4403906"><ele>16.198282136511576</ele></trkpt><trkpt lat="63.4416152" lon="10.4393552"><ele>16.65206245165278</ele></trkpt><trkpt lat="63.441656" lon="10.4393981"><ele>16.696290613330277</ele></trkpt><trkpt lat="63.4418911" lon="10.4394625"><ele>16.92865196126307</ele></trkpt><trkpt lat="63.4427017" lon="10.4396342"><ele>13.441633911768605</ele></trkpt><trkpt lat="63.4430015" lon="10.4400097"><ele>11.76582429823438</ele></trkpt><trkpt lat="63.4437258" lon="10.4373489"><ele>10.149865224155274</ele></trkpt><trkpt lat="63.4438457" lon="10.4366408"><ele>10.544036108270952</ele></trkpt><trkpt lat="63.4439057" lon="10.4361527"><ele>10.660432474239151</ele></trkpt><trkpt lat="63.4439561" lon="10.4353641"><ele>10.836962244335215</ele></trkpt><trkpt lat="63.4439681" lon="10.4340445"><ele>10.534308948417857</ele></trkpt><trkpt lat="63.4438985" lon="10.4322635"><ele>8.821360396790336</ele></trkpt><trkpt lat="63.4434332" lon="10.4295491"><ele>5.542392582469915</ele></trkpt><trkpt lat="63.44316400488912" lon="10.428549491373499"><ele>5.011394064690814</ele></trkpt><trkpt lat="63.44258788557688" lon="10.427134547360748"><ele>4.340996014987976</ele></trkpt><trkpt lat="63.4424499" lon="10.4269044"><ele>4.422486123811067</ele></trkpt><trkpt lat="63.4422724" lon="10.4268025"><ele>4.509243512259788</ele></trkpt><trkpt lat="63.4422364" lon="10.4263143"><ele>4.613976571605055</ele></trkpt><trkpt lat="63.4421933" lon="10.426148"><ele>4.654663679131582</ele></trkpt><trkpt lat="63.4419151" lon="10.4258262"><ele>4.842796483721413</ele></trkpt><trkpt lat="63.4418287" lon="10.4255204"><ele>4.962532059082819</ele></trkpt><trkpt lat="63.4415025" lon="10.425279"><ele>5.216898112150685</ele></trkpt><trkpt lat="63.4408525" lon="10.4245333"><ele>4.300745500646535</ele></trkpt><trkpt lat="63.440759" lon="10.4244851"><ele>4.076651468415429</ele></trkpt><trkpt lat="63.4407158" lon="10.4243027"><ele>3.861108301743595</ele></trkpt><trkpt lat="63.4405983" lon="10.4240666"><ele>3.4922009645790304</ele></trkpt><trkpt lat="63.4400466" lon="10.4233532"><ele>3.8829380326515084</ele></trkpt><trkpt lat="63.4395213" lon="10.4226236"><ele>4.049043766306929</ele></trkpt><trkpt lat="63.4394038" lon="10.4223393"><ele>3.8850147564138644</ele></trkpt><trkpt lat="63.4391399" lon="10.4220067"><ele>3.5979814763950975</ele></trkpt><trkpt lat="63.4388976" lon="10.4216687"><ele>3.403720769062329</ele></trkpt><trkpt lat="63.4388497" lon="10.4215507"><ele>3.389194436728421</ele></trkpt><trkpt lat="63.4388521" lon="10.4214113"><ele>3.376479014046611</ele></trkpt><trkpt lat="63.4394781" lon="10.4189812"><ele>3.618744106662892</ele></trkpt><trkpt lat="63.4392622" lon="10.4187773"><ele>3.7725634971492163</ele></trkpt><trkpt lat="63.4391807" lon="10.4185252"><ele>3.8457889697933036</ele></trkpt><trkpt lat="63.4391639" lon="10.4182516"><ele>3.872128661497785</ele></trkpt><trkpt lat="63.4390751" lon="10.4181175"><ele>3.894983381624036</ele></trkpt><trkpt lat="63.43877833155605" lon="10.41807717465602"><ele>3.958400250507774</ele></trkpt><trkpt lat="63.4384317279627" lon="10.417781394476556"><ele>4.035649704221432</ele></trkpt><trkpt lat="63.43829567388911" lon="10.41768122836329"><ele>4.056662563465568</ele></trkpt><trkpt lat="63.4381852" lon="10.4176347"><ele>4.073153966884285</ele></trkpt><trkpt lat="63.4378278" lon="10.416771"><ele>4.150349065734829</ele></trkpt><trkpt lat="63.4378086" lon="10.4165189"><ele>4.151614717739942</ele></trkpt><trkpt lat="63.4379909" lon="10.415564"><ele>3.6638114844862018</ele></trkpt><trkpt lat="63.4380461" lon="10.4154836"><ele>3.5945992862823455</ele></trkpt><trkpt lat="63.4380077" lon="10.4151832"><ele>3.4478136217612314</ele></trkpt><trkpt lat="63.4378182" lon="10.4149149"><ele>3.212167455030844</ele></trkpt><trkpt lat="63.4377462" lon="10.4146306"><ele>3.1528547499045914</ele></trkpt><trkpt lat="63.4376359" lon="10.4143463"><ele>3.087882579457539</ele></trkpt><trkpt lat="63.4375975" lon="10.4140835"><ele>3.040157526810026</ele></trkpt><trkpt lat="63.4375423" lon="10.4134558"><ele>2.9297282396640543</ele></trkpt><trkpt lat="63.4375279" lon="10.412855"><ele>3.072413765928127</ele></trkpt><trkpt lat="63.4375471" lon="10.412399"><ele>3.646756044390695</ele></trkpt><trkpt lat="63.4376119" lon="10.4116856"><ele>4.559610156868588</ele></trkpt><trkpt lat="63.4378254" lon="10.4105537"><ele>3.954367667075722</ele></trkpt><trkpt lat="63.4382236" lon="10.4081665"><ele>2.4487990494079743</ele></trkpt><trkpt lat="63.438262" lon="10.408027"><ele>2.827795312696716</ele></trkpt><trkpt lat="63.4384659" lon="10.4078715"><ele>3.9424168024126223</ele></trkpt><trkpt lat="63.4385714" lon="10.4073189"><ele>4.6080786988789315</ele></trkpt><trkpt lat="63.4390128" lon="10.4065035"><ele>4.089478966359887</ele></trkpt><trkpt lat="63.439387" lon="10.4057418"><ele>3.6763106530336422</ele></trkpt><trkpt lat="63.4395237" lon="10.4055326"><ele>3.5524153234652047</ele></trkpt><trkpt lat="63.4396676" lon="10.4055433"><ele>3.444722486249401</ele></trkpt><trkpt lat="63.4397084" lon="10.4055755"><ele>3.4123607356698775</ele></trkpt><trkpt lat="63.4397947" lon="10.4053287"><ele>3.307575961955459</ele></trkpt><trkpt lat="63.4397827" lon="10.4051302"><ele>3.240584155332289</ele></trkpt><trkpt lat="63.4398115" lon="10.4048567"><ele>3.1793063199247666</ele></trkpt><trkpt lat="63.4399914" lon="10.4044972"><ele>3.0940530358449787</ele></trkpt><trkpt lat="63.4400778" lon="10.4043846"><ele>3.058715693508348</ele></trkpt><trkpt lat="63.4402073" lon="10.4044651"><ele>3.0112186111335086</ele></trkpt><trkpt lat="63.4402553" lon="10.4045509"><ele>2.9895045226054138</ele></trkpt><trkpt lat="63.4401977" lon="10.4038213"><ele>2.9301615736643094</ele></trkpt><trkpt lat="63.4400682" lon="10.4037087"><ele>3.082843744666858</ele></trkpt><trkpt lat="63.4399506" lon="10.403537"><ele>3.2371730410784387</ele></trkpt><trkpt lat="63.4396844" lon="10.4029147"><ele>3.6603332816469307</ele></trkpt><trkpt lat="63.4392574" lon="10.4018419"><ele>3.5077196065280254</ele></trkpt><trkpt lat="63.4392167" lon="10.4014985"><ele>3.368784886946104</ele></trkpt><trkpt lat="63.4390991" lon="10.4011659"><ele>3.202958841038723</ele></trkpt><trkpt lat="63.4383339" lon="10.399385"><ele>3.4425582014827874</ele></trkpt><trkpt lat="63.4382212" lon="10.3989719"><ele>3.4936567684034276</ele></trkpt><trkpt lat="63.4378014" lon="10.3979044"><ele>3.6352151687624743</ele></trkpt><trkpt lat="63.4375351" lon="10.3973197"><ele>3.1278505348406047</ele></trkpt><trkpt lat="63.4370194" lon="10.3960483"><ele>2.5466124962882457</ele></trkpt><trkpt lat="63.4369618" lon="10.3959946"><ele>2.584720004193319</ele></trkpt><trkpt lat="63.436578" lon="10.3945945"><ele>2.9928602322377125</ele></trkpt><trkpt lat="63.4363693" lon="10.3937577"><ele>3.110519827912456</ele></trkpt><trkpt lat="63.4359998" lon="10.3924434"><ele>3.7279792364252975</ele></trkpt><trkpt lat="63.4359135" lon="10.3923522"><ele>3.8772149199657657</ele></trkpt><trkpt lat="63.4356232" lon="10.3913383"><ele>4.5693354308972465</ele></trkpt><trkpt lat="63.4354145" lon="10.3907536"><ele>4.15675696483434</ele></trkpt><trkpt lat="63.4348867" lon="10.3891228"><ele>3.4395337814306237</ele></trkpt><trkpt lat="63.433524" lon="10.385121"><ele>3.246837966536783</ele></trkpt><trkpt lat="63.4332553" lon="10.3842305"><ele>3.121067815248775</ele></trkpt><trkpt lat="63.4330874" lon="10.383399"><ele>3.040522577958734</ele></trkpt><trkpt lat="63.4328475" lon="10.3825031"><ele>3.490165517762375</ele></trkpt><trkpt lat="63.4327635" lon="10.3820257"><ele>3.8151391121818485</ele></trkpt><trkpt lat="63.4326987" lon="10.3818219"><ele>3.973537192743214</ele></trkpt><trkpt lat="63.4326171" lon="10.3817038"><ele>4.11121112035398</ele></trkpt><trkpt lat="63.4325332" lon="10.3816824"><ele>4.230813349040252</ele></trkpt><trkpt lat="63.4324468" lon="10.3815483"><ele>4.058226784836996</ele></trkpt><trkpt lat="63.4322908" lon="10.3810333"><ele>2.744140155007039</ele></trkpt><trkpt lat="63.4322716" lon="10.3799765"><ele>0.50960972635685</ele></trkpt><trkpt lat="63.4322524" lon="10.3795956"><ele>0.2148117642375668</ele></trkpt><trkpt lat="63.4322164" lon="10.3793971"><ele>0.5386199515420421</ele></trkpt><trkpt lat="63.4320917" lon="10.3791021"><ele>1.1522389034431473</ele></trkpt><trkpt lat="63.4319933" lon="10.378791"><ele>1.7282579499201398</ele></trkpt><trkpt lat="63.4317582" lon="10.3786193"><ele>2.5642120573532257</ele></trkpt><trkpt lat="63.4316478" lon="10.3783242"><ele>3.1046582548407975</ele></trkpt><trkpt lat="63.4315255" lon="10.3781365"><ele>3.2884488165128842</ele></trkpt><trkpt lat="63.4314559" lon="10.3779702"><ele>3.414657362115929</ele></trkpt><trkpt lat="63.4313575" lon="10.3775625"><ele>3.6713801579529948</ele></trkpt><trkpt lat="63.4312495" lon="10.3769402"><ele>4.041280789655572</ele></trkpt><trkpt lat="63.4312111" lon="10.3761248"><ele>4.313663945923042</ele></trkpt><trkpt lat="63.4312111" lon="10.3747355"><ele>4.592805493746535</ele></trkpt><trkpt lat="63.43114017244891" lon="10.374078784455016"><ele>6.033774873510232</ele></trkpt><trkpt lat="63.43066226866886" lon="10.373866681083085"><ele>8.875194388440676</ele></trkpt><trkpt lat="63.4304475049815" lon="10.373748585389308"><ele>10.040704195148571</ele></trkpt><trkpt lat="63.42995845611913" lon="10.373437981250625"><ele>11.401582589788863</ele></trkpt><trkpt lat="63.4300642" lon="10.3747891"><ele>12.313131416150407</ele></trkpt><trkpt lat="63.4299802" lon="10.3752612"><ele>12.256716865213901</ele></trkpt><trkpt lat="63.4298747" lon="10.3755455"><ele>12.215700278747942</ele></trkpt><trkpt lat="63.4297811" lon="10.3756957"><ele>12.187099428859362</ele></trkpt><trkpt lat="63.4296275" lon="10.375744"><ele>12.133663503114898</ele></trkpt><trkpt lat="63.4295723" lon="10.3757922"><ele>11.343802616989723</ele></trkpt><trkpt lat="63.4294164" lon="10.3763716"><ele>7.312696552777657</ele></trkpt><trkpt lat="63.429342" lon="10.3765164"><ele>5.997934279933327</ele></trkpt><trkpt lat="63.4284445" lon="10.376908"><ele>2.5050000315086494</ele></trkpt><trkpt lat="63.428207" lon="10.3770797"><ele>3.8513342160954243</ele></trkpt><trkpt lat="63.428123" lon="10.3774606"><ele>4.875958166131292</ele></trkpt><trkpt lat="63.4280246" lon="10.377761"><ele>4.94044269521081</ele></trkpt><trkpt lat="63.4275927" lon="10.3797941"><ele>4.683334129380433</ele></trkpt><trkpt lat="63.4273935" lon="10.3803681"><ele>4.2093984184736</ele></trkpt><trkpt lat="63.4269256" lon="10.3815322"><ele>4.737771760530464</ele></trkpt><trkpt lat="63.4266808" lon="10.3820901"><ele>5.700089016907345</ele></trkpt><trkpt lat="63.4261769" lon="10.3830986"><ele>6.474503124811865</ele></trkpt><trkpt lat="63.4258961" lon="10.3835492"><ele>6.64679441361729</ele></trkpt><trkpt lat="63.4254305" lon="10.3844343"><ele>7.056435050730284</ele></trkpt><trkpt lat="63.4251425" lon="10.3848957"><ele>7.303543450737399</ele></trkpt><trkpt lat="63.4244994" lon="10.3863065"><ele>7.43555257250594</ele></trkpt><trkpt lat="63.4244346" lon="10.3864138"><ele>7.5631959671122315</ele></trkpt><trkpt lat="63.4243218" lon="10.3868966"><ele>8.29528429480187</ele></trkpt><trkpt lat="63.4240122" lon="10.3880607"><ele>10.115548181630956</ele></trkpt><trkpt lat="63.4237218" lon="10.3895412"><ele>10.225023725332994</ele></trkpt><trkpt lat="63.423657" lon="10.3899597"><ele>10.237979801550745</ele></trkpt><trkpt lat="63.4235418" lon="10.3911559"><ele>10.493388545518751</ele></trkpt><trkpt lat="63.4233906" lon="10.3923147"><ele>10.126042018914276</ele></trkpt><trkpt lat="63.4232826" lon="10.3933553"><ele>8.542345329521936</ele></trkpt><trkpt lat="63.4232322" lon="10.3936075"><ele>8.13284319001185</ele></trkpt><trkpt lat="63.4231938" lon="10.3939293"><ele>7.640859852456359</ele></trkpt><trkpt lat="63.4232346" lon="10.3946589"><ele>6.709868002137846</ele></trkpt><trkpt lat="63.423189" lon="10.3958015"><ele>5.25738831036764</ele></trkpt><trkpt lat="63.4231986" lon="10.3972767"><ele>5.234349600690563</ele></trkpt><trkpt lat="63.4232994" lon="10.3979527"><ele>5.321311831046834</ele></trkpt><trkpt lat="63.4234458" lon="10.3986178"><ele>5.3551444160771675</ele></trkpt><trkpt lat="63.4236162" lon="10.3992669"><ele>5.389495005754878</ele></trkpt><trkpt lat="63.423837" lon="10.3998838"><ele>5.43858766749214</ele></trkpt><trkpt lat="63.4240314" lon="10.4003452"><ele>5.5005076892613</ele></trkpt><trkpt lat="63.4242882" lon="10.4008387"><ele>5.574461882810516</ele></trkpt><trkpt lat="63.4244922" lon="10.4011606"><ele>5.593969096633355</ele></trkpt><trkpt lat="63.4251329" lon="10.4020511"><ele>5.3940136684264095</ele></trkpt><trkpt lat="63.4255049" lon="10.4026251"><ele>7.59042852726469</ele></trkpt><trkpt lat="63.4255889" lon="10.4028718"><ele>8.427965618493609</ele></trkpt><trkpt lat="63.4255481" lon="10.4035477"><ele>10.270444184730778</ele></trkpt><trkpt lat="63.4259585" lon="10.4036443"><ele>10.13421660254551</ele></trkpt><trkpt lat="63.4262848" lon="10.4036282"><ele>9.359423832420099</ele></trkpt><trkpt lat="63.4271271" lon="10.4031991"><ele>9.597097502175854</ele></trkpt><trkpt lat="63.4274175" lon="10.4031669"><ele>10.032371927343274</ele></trkpt><trkpt lat="63.4277223" lon="10.4030864"><ele>8.54591879470071</ele></trkpt><trkpt lat="63.427991" lon="10.4029898"><ele>7.044063790922261</ele></trkpt><trkpt lat="63.4280894" lon="10.4029308"><ele>6.4818576231771</ele></trkpt><trkpt lat="63.428387" lon="10.4001574"><ele>9.26413025658842</ele></trkpt><trkpt lat="63.4283798" lon="10.4000609"><ele>9.46708118714698</ele></trkpt><trkpt lat="63.4282598" lon="10.3999214"><ele>10.094334456057775</ele></trkpt><trkpt lat="63.4280822" lon="10.3998946"><ele>10.919840919277846</ele></trkpt><trkpt lat="63.427967" lon="10.3998141"><ele>11.479580607739155</ele></trkpt><trkpt lat="63.427931" lon="10.3997497"><ele>11.693406092836158</ele></trkpt><trkpt lat="63.4276911" lon="10.3965472"><ele>13.782074576329192</ele></trkpt><trkpt lat="63.428063" lon="10.3963594"><ele>14.117725028433021</ele></trkpt><trkpt lat="63.4286125" lon="10.3960537"><ele>13.992390347734002</ele></trkpt><trkpt lat="63.4290852" lon="10.3958337"><ele>13.391462010516868</ele></trkpt><trkpt lat="63.42939" lon="10.3956513"><ele>12.607239461171252</ele></trkpt><trkpt lat="63.4301026" lon="10.3952865"><ele>10.11128234863281</ele></trkpt></trkseg></trk></gpx>