<gpx xmlns="http://www.topografix.com/GPX/1/1" xmlns:xsi="http://www.w3.org/2001/XMLSchema-instance" xsi:schemaLocation="http://www.topografix.com/GPX/1/1 http://www.topografix.com/GPX/1/1/gpx.xsd" version="1.1" creator="togpx"><metadata/><trk><name>TrøndelagKraft 5ern</name><desc>name=TrøndelagKraft 5ern</desc><trkseg><trkpt lat="63.430405" lon="10.397525"><ele>10.3706579208374</ele></trkpt><trkpt lat="63.430402" lon="10.397597"><ele>10.4250857984779</ele></trkpt><trkpt lat="63.430397" lon="10.397738"><ele>10.531547262407969</ele></trkpt><trkpt lat="63.430392" lon="10.397877"><ele>10.636508152540747</ele></trkpt><trkpt lat="63.430351" lon="10.399039"><ele>11.418809959144127</ele></trkpt><trkpt lat="63.430343" lon="10.399276"><ele>11.48077799120244</ele></trkpt><trkpt lat="63.430323" lon="10.399844"><ele>11.62932922036738</ele></trkpt><trkpt lat="63.430315" lon="10.400056"><ele>11.684799780258338</ele></trkpt><trkpt lat="63.430277" lon="10.40115"><ele>9.910251784988672</ele></trkpt><trkpt lat="63.4302338" lon="10.4013327"><ele>9.531809294070719</ele></trkpt><trkpt lat="63.4317934" lon="10.4026952"><ele>9.242195536204266</ele></trkpt><trkpt lat="63.431758" lon="10.402719"><ele>9.024509017103098</ele></trkpt><trkpt lat="63.431755" lon="10.40274"><ele>8.966444872069376</ele></trkpt><trkpt lat="63.431904" lon="10.402863"><ele>8.267821459286717</ele></trkpt><trkpt lat="63.432395" lon="10.40326"><ele>8.180785746198572</ele></trkpt><trkpt lat="63.43247" lon="10.403321"><ele>8.01914258744135</ele></trkpt><trkpt lat="63.432505" lon="10.40335"><ele>7.902970856890412</ele></trkpt><trkpt lat="63.432671" lon="10.403489"><ele>7.351277067027007</ele></trkpt><trkpt lat="63.432671" lon="10.403489"><ele>7.351277067027007</ele></trkpt><trkpt lat="63.432926" lon="10.403703"><ele>6.503563849328769</ele></trkpt><trkpt lat="63.432956" lon="10.403791"><ele>6.349541008154596</ele></trkpt><trkpt lat="63.432962" lon="10.403925"><ele>6.278873179168846</ele></trkpt><trkpt lat="63.432975" lon="10.403935"><ele>6.265766338572908</ele></trkpt><trkpt lat="63.433021" lon="10.403974"><ele>6.218864131007965</ele></trkpt><trkpt lat="63.433007" lon="10.404031"><ele>6.19113601816089</ele></trkpt><trkpt lat="63.432992" lon="10.404095"><ele>6.1603269213964635</ele></trkpt><trkpt lat="63.432789" lon="10.405107"><ele>4.9727697667199635</ele></trkpt><trkpt lat="63.432701" lon="10.405547"><ele>2.878279113144737</ele></trkpt><trkpt lat="63.432625" lon="10.405917"><ele>1.1089771090492953</ele></trkpt><trkpt lat="63.432484" lon="10.406606"><ele>1.8862232020844727</ele></trkpt><trkpt lat="63.43247" lon="10.406668"><ele>2.1458720229330353</ele></trkpt><trkpt lat="63.432424" lon="10.406865"><ele>2.9766744646368783</ele></trkpt><trkpt lat="63.432329" lon="10.407213"><ele>4.500848824692202</ele></trkpt><trkpt lat="63.432232" lon="10.407568"><ele>4.876261723831372</ele></trkpt><trkpt lat="63.432151" lon="10.407846"><ele>4.78114784290188</ele></trkpt><trkpt lat="63.432091" lon="10.407978"><ele>4.7271952301484195</ele></trkpt><trkpt lat="63.432122" lon="10.407962"><ele>4.7068030835797705</ele></trkpt><trkpt lat="63.432136" lon="10.407964"><ele>4.697811414427644</ele></trkpt><trkpt lat="63.432136" lon="10.407964"><ele>4.697811414427644</ele></trkpt><trkpt lat="63.432122" lon="10.407962"><ele>4.688819745275517</ele></trkpt><trkpt lat="63.432091" lon="10.407978"><ele>4.668427598706868</ele></trkpt><trkpt lat="63.432066" lon="10.408014"><ele>4.649367918522837</ele></trkpt><trkpt lat="63.432066" lon="10.408014"><ele>4.649367918522837</ele></trkpt><trkpt lat="63.432066" lon="10.408014"><ele>4.649367918522837</ele></trkpt><trkpt lat="63.432066" lon="10.408014"><ele>4.649367918522837</ele></trkpt><trkpt lat="63.432045" lon="10.408072"><ele>4.627975607744827</ele></trkpt><trkpt lat="63.432039" lon="10.408123"><ele>4.6128579571957165</ele></trkpt><trkpt lat="63.432033" lon="10.408172"><ele>4.598294057683581</ele></trkpt><trkpt lat="63.432039" lon="10.408246"><ele>4.58891093711821</ele></trkpt><trkpt lat="63.432059" lon="10.408312"><ele>4.645392188956004</ele></trkpt><trkpt lat="63.432066" lon="10.408336"><ele>4.665691650519739</ele></trkpt><trkpt lat="63.432095" lon="10.408374"><ele>4.7189366890059015</ele></trkpt><trkpt lat="63.432115" lon="10.408389"><ele>4.752352469557045</ele></trkpt><trkpt lat="63.432147" lon="10.408387"><ele>4.80306167859848</ele></trkpt><trkpt lat="63.4321965" lon="10.4084244"><ele>4.885827883463469</ele></trkpt><trkpt lat="63.4327147" lon="10.4096153"><ele>5.160508602822495</ele></trkpt><trkpt lat="63.4343462" lon="10.4141322"><ele>7.820163414979479</ele></trkpt><trkpt lat="63.4350707" lon="10.415999"><ele>5.534146450452952</ele></trkpt><trkpt lat="63.4355409" lon="10.4174903"><ele>6.852642071130585</ele></trkpt><trkpt lat="63.4349747" lon="10.4194215"><ele>10.911807292937919</ele></trkpt><trkpt lat="63.4348932" lon="10.420827"><ele>12.236561495907234</ele></trkpt><trkpt lat="63.4348788" lon="10.4216209"><ele>13.202060302623186</ele></trkpt><trkpt lat="63.4349603" lon="10.4241207"><ele>13.40705873958276</ele></trkpt><trkpt lat="63.4356776" lon="10.4238472"><ele>11.894979779347672</ele></trkpt><trkpt lat="63.4358528" lon="10.4234984"><ele>11.217356886187115</ele></trkpt><trkpt lat="63.4359727" lon="10.4239491"><ele>10.745781581774706</ele></trkpt><trkpt lat="63.4365724" lon="10.4235092"><ele>10.727002467420338</ele></trkpt><trkpt lat="63.4368507" lon="10.4237988"><ele>11.079750979766226</ele></trkpt><trkpt lat="63.4372009" lon="10.4246357"><ele>10.6624652172613</ele></trkpt><trkpt lat="63.4369898" lon="10.4202261"><ele>7.3849990280056055</ele></trkpt><trkpt lat="63.437129" lon="10.4198506"><ele>6.097024627976499</ele></trkpt><trkpt lat="63.4374504" lon="10.4203442"><ele>5.122606912283092</ele></trkpt><trkpt lat="63.4377671" lon="10.4207948"><ele>5.425091959783503</ele></trkpt><trkpt lat="63.4385059" lon="10.4222003"><ele>4.5736873175524195</ele></trkpt><trkpt lat="63.4387841" lon="10.4213741"><ele>4.057331652667338</ele></trkpt><trkpt lat="63.4388705" lon="10.4213634"><ele>4.120001127533344</ele></trkpt><trkpt lat="63.4395325" lon="10.4190031"><ele>3.8943104504947943</ele></trkpt><trkpt lat="63.4391631" lon="10.4184988"><ele>4.092645911957384</ele></trkpt><trkpt lat="63.4391343" lon="10.418134"><ele>3.9194592621506663</ele></trkpt><trkpt lat="63.43895403084437" lon="10.418089328363232"><ele>3.7298262691296573</ele></trkpt><trkpt lat="63.43877603173154" lon="10.418063536189669"><ele>3.7691034661399803</ele></trkpt><trkpt lat="63.438299840857724" lon="10.417696454014502"><ele>3.935627959874896</ele></trkpt><trkpt lat="63.4381557" lon="10.4176083"><ele>3.779163296959402</ele></trkpt><trkpt lat="63.4378438" lon="10.4168144"><ele>3.4683799749530673</ele></trkpt><trkpt lat="63.4378438" lon="10.4164389"><ele>3.6540580203809987</ele></trkpt><trkpt lat="63.4379158" lon="10.4159024"><ele>3.9310372253886237</ele></trkpt><trkpt lat="63.4380021" lon="10.415602"><ele>3.916195450871624</ele></trkpt><trkpt lat="63.4380213" lon="10.4154304"><ele>3.7891798714826344</ele></trkpt><trkpt lat="63.4379925" lon="10.4151943"><ele>3.6134542578332383</ele></trkpt><trkpt lat="63.4378006" lon="10.414851"><ele>3.218839482757335</ele></trkpt><trkpt lat="63.4377671" lon="10.4146793"><ele>3.084325201194295</ele></trkpt><trkpt lat="63.4376423" lon="10.4143789"><ele>2.956704660810886</ele></trkpt><trkpt lat="63.4375464" lon="10.4134563"><ele>2.7023095506932475</ele></trkpt><trkpt lat="63.4375416" lon="10.412437"><ele>3.862401790501587</ele></trkpt><trkpt lat="63.4376999" lon="10.4112032"><ele>4.325077395038968</ele></trkpt><trkpt lat="63.4377767" lon="10.411289"><ele>4.351677925012241</ele></trkpt><trkpt lat="63.4379542" lon="10.4111603"><ele>4.320717927186194</ele></trkpt><trkpt lat="63.437911" lon="10.4110208"><ele>4.290792598547718</ele></trkpt><trkpt lat="63.4374888" lon="10.4105166"><ele>4.315424744169902</ele></trkpt><trkpt lat="63.4373833" lon="10.4105166"><ele>4.530725551821256</ele></trkpt><trkpt lat="63.4373497" lon="10.4107526"><ele>4.7567469905063415</ele></trkpt><trkpt lat="63.4373497" lon="10.4109457"><ele>4.932966534225083</ele></trkpt><trkpt lat="63.4374936" lon="10.4111066"><ele>5.261295766113548</ele></trkpt><trkpt lat="63.43758" lon="10.4107955"><ele>4.247022619957342</ele></trkpt><trkpt lat="63.4379878" lon="10.4084673"><ele>0.6095248594632343</ele></trkpt><trkpt lat="63.4380789" lon="10.4078343"><ele>1.6922229655962333</ele></trkpt><trkpt lat="63.4380645" lon="10.4076627"><ele>1.9764945218770509</ele></trkpt><trkpt lat="63.4376807" lon="10.4074588"><ele>1.9975213661144546</ele></trkpt><trkpt lat="63.4371626" lon="10.4071262"><ele>2.2812629873692094</ele></trkpt><trkpt lat="63.4364957" lon="10.4065683"><ele>4.092659320068726</ele></trkpt><trkpt lat="63.4359823" lon="10.4063323"><ele>3.956503185098928</ele></trkpt><trkpt lat="63.4355409" lon="10.4059783"><ele>4.382774157540159</ele></trkpt><trkpt lat="63.4351906" lon="10.4056135"><ele>1.035884688166286</ele></trkpt><trkpt lat="63.4348452" lon="10.4053345"><ele>2.2868651149917</ele></trkpt><trkpt lat="63.4346293" lon="10.4050985"><ele>4.235359620948961</ele></trkpt><trkpt lat="63.4338807" lon="10.404444"><ele>5.646759449073181</ele></trkpt><trkpt lat="63.4337608" lon="10.4044011"><ele>5.788435355380389</ele></trkpt><trkpt lat="63.4336456" lon="10.4047122"><ele>5.999196655796308</ele></trkpt><trkpt lat="63.433137" lon="10.4042402"><ele>6.551634010298413</ele></trkpt><trkpt lat="63.4314431" lon="10.4029205"><ele>8.54305002167011</ele></trkpt><trkpt lat="63.4309728" lon="10.4024163"><ele>8.530983357368571</ele></trkpt><trkpt lat="63.4297875" lon="10.4015687"><ele>8.960972488960806</ele></trkpt><trkpt lat="63.4294948" lon="10.4011717"><ele>9.694176350924524</ele></trkpt><trkpt lat="63.429538" lon="10.4008821"><ele>9.97566357138963</ele></trkpt><trkpt lat="63.4292932" lon="10.4007533"><ele>10.494081927365025</ele></trkpt><trkpt lat="63.4284534" lon="10.4001418"><ele>9.833194534161791</ele></trkpt><trkpt lat="63.4280599" lon="10.3999057"><ele>10.802984527701192</ele></trkpt><trkpt lat="63.4279159" lon="10.3997555"><ele>11.43947071681173</ele></trkpt><trkpt lat="63.4276951" lon="10.3966013"><ele>13.723496565153242</ele></trkpt><trkpt lat="63.4277059" lon="10.3965745"><ele>13.761680985244972</ele></trkpt><trkpt lat="63.4294132" lon="10.3956249"><ele>12.991471834488745</ele></trkpt><trkpt lat="63.4301474" lon="10.3952387"><ele>9.936223030090332</ele></trkpt></trkseg></trk></gpx>