<gpx xmlns="http://www.topografix.com/GPX/1/1" xmlns:xsi="http://www.w3.org/2001/XMLSchema-instance" xsi:schemaLocation="http://www.topografix.com/GPX/1/1 http://www.topografix.com/GPX/1/1/gpx.xsd" version="1.1" creator="togpx"><metadata/><trk><name>Helmaraton</name><desc>name=Helmaraton</desc><trkseg><trkpt lat="63.43036369168457" lon="10.398630174013325"><ele>11.01409244537354</ele></trkpt><trkpt lat="63.43024" lon="10.4013741"><ele>10.774912713724765</ele></trkpt><trkpt lat="63.4317084" lon="10.4026132"><ele>8.78680766482733</ele></trkpt><trkpt lat="63.4320084" lon="10.4027478"><ele>8.305953929908927</ele></trkpt><trkpt lat="63.4330689" lon="10.4037455"><ele>6.348957904757437</ele></trkpt><trkpt lat="63.4321908" lon="10.4079083"><ele>3.858032930112553</ele></trkpt><trkpt lat="63.4320948" lon="10.4081122"><ele>4.2343815293004985</ele></trkpt><trkpt lat="63.4320516" lon="10.4082517"><ele>4.450077729064497</ele></trkpt><trkpt lat="63.4324019" lon="10.4089598"><ele>5.79231314637178</ele></trkpt><trkpt lat="63.43310481607961" lon="10.410774818853103"><ele>5.683766045244151</ele></trkpt><trkpt lat="63.434793" lon="10.415255"><ele>6.362661560366527</ele></trkpt><trkpt lat="63.43503399480781" lon="10.415864714411919"><ele>6.123672046219782</ele></trkpt><trkpt lat="63.43551854637434" lon="10.417408174849268"><ele>6.86023117100716</ele></trkpt><trkpt lat="63.4349498" lon="10.4195599"><ele>11.08787308574345</ele></trkpt><trkpt lat="63.434897" lon="10.4207722"><ele>12.426882651476983</ele></trkpt><trkpt lat="63.4348586" lon="10.4209975"><ele>12.60887533464894</ele></trkpt><trkpt lat="63.4349498" lon="10.4239158"><ele>13.514441548240628</ele></trkpt><trkpt lat="63.435041" lon="10.4241196"><ele>13.438545803182283</ele></trkpt><trkpt lat="63.4356455" lon="10.4239694"><ele>12.426696146171377</ele></trkpt><trkpt lat="63.4357367" lon="10.4237441"><ele>12.129435201156474</ele></trkpt><trkpt lat="63.435847" lon="10.4236046"><ele>11.852255459054438</ele></trkpt><trkpt lat="63.4359478" lon="10.4239158"><ele>11.476385813056844</ele></trkpt><trkpt lat="63.4360437" lon="10.4239479"><ele>11.343467265230128</ele></trkpt><trkpt lat="63.4361925" lon="10.4238836"><ele>11.311855675626092</ele></trkpt><trkpt lat="63.4364708" lon="10.4235885"><ele>11.247610945839794</ele></trkpt><trkpt lat="63.436629" lon="10.4235772"><ele>11.214596036559689</ele></trkpt><trkpt lat="63.4368209" lon="10.4237596"><ele>11.171102908091616</ele></trkpt><trkpt lat="63.4371543" lon="10.4245965"><ele>10.776447950231782</ele></trkpt><trkpt lat="63.4372479" lon="10.4247521"><ele>10.679699356129543</ele></trkpt><trkpt lat="63.4387671" lon="10.4283373"><ele>12.60026997630411</ele></trkpt><trkpt lat="63.4389399" lon="10.4281228"><ele>12.455859926589616</ele></trkpt><trkpt lat="63.4394148" lon="10.4301827"><ele>12.682938698701616</ele></trkpt><trkpt lat="63.4394724" lon="10.4302042"><ele>12.775551850022573</ele></trkpt><trkpt lat="63.439693" lon="10.4311161"><ele>13.522705814170108</ele></trkpt><trkpt lat="63.4398466" lon="10.4318993"><ele>14.227212108329706</ele></trkpt><trkpt lat="63.4399888" lon="10.4327331"><ele>14.962332280567175</ele></trkpt><trkpt lat="63.4403821" lon="10.4362199"><ele>17.608285673037578</ele></trkpt><trkpt lat="63.4405356" lon="10.4381404"><ele>17.800602702190464</ele></trkpt><trkpt lat="63.4406508" lon="10.4413269"><ele>19.226729873928402</ele></trkpt><trkpt lat="63.4406652" lon="10.4433761"><ele>21.062474049780914</ele></trkpt><trkpt lat="63.4403581" lon="10.4442451"><ele>22.348606661306487</ele></trkpt><trkpt lat="63.4400511" lon="10.4445562"><ele>23.63499933016733</ele></trkpt><trkpt lat="63.4395186" lon="10.4452965"><ele>26.667749901661985</ele></trkpt><trkpt lat="63.4387702" lon="10.4466698"><ele>29.827493696713415</ele></trkpt><trkpt lat="63.4386551" lon="10.4467664"><ele>30.268223249770006</ele></trkpt><trkpt lat="63.4382905" lon="10.4475818"><ele>32.1713584848288</ele></trkpt><trkpt lat="63.4380746" lon="10.4482899"><ele>33.16003833045369</ele></trkpt><trkpt lat="63.4378827" lon="10.449352"><ele>32.853573856141544</ele></trkpt><trkpt lat="63.4376956" lon="10.451412"><ele>33.19203993674149</ele></trkpt><trkpt lat="63.4375229" lon="10.4529033"><ele>34.14981866537597</ele></trkpt><trkpt lat="63.4371871" lon="10.4545502"><ele>35.356545840057244</ele></trkpt><trkpt lat="63.4370383" lon="10.4551403"><ele>35.71105435950491</ele></trkpt><trkpt lat="63.4365058" lon="10.4568836"><ele>37.807205298874074</ele></trkpt><trkpt lat="63.436429" lon="10.457345"><ele>38.33703113383702</ele></trkpt><trkpt lat="63.4364409" lon="10.4577581"><ele>38.303520567992656</ele></trkpt><trkpt lat="63.4365345" lon="10.4581604"><ele>38.26680958665072</ele></trkpt><trkpt lat="63.43676" lon="10.45889"><ele>38.19501355322934</ele></trkpt><trkpt lat="63.4376188" lon="10.4601667"><ele>37.1295344581109</ele></trkpt><trkpt lat="63.4381538" lon="10.4610679"><ele>36.71870808155227</ele></trkpt><trkpt lat="63.4381789" lon="10.4604939"><ele>36.41830412892784</ele></trkpt><trkpt lat="63.4383433" lon="10.4596839"><ele>35.18788928551693</ele></trkpt><trkpt lat="63.4389501" lon="10.457404"><ele>33.311009094686625</ele></trkpt><trkpt lat="63.4394659" lon="10.4551671"><ele>32.11103898762615</ele></trkpt><trkpt lat="63.43996" lon="10.4526243"><ele>28.10583725281995</ele></trkpt><trkpt lat="63.440255" lon="10.4508433"><ele>26.920694398738696</ele></trkpt><trkpt lat="63.4404253" lon="10.4494325"><ele>26.503320451850538</ele></trkpt><trkpt lat="63.440646" lon="10.4473726"><ele>24.091155768708774</ele></trkpt><trkpt lat="63.4407347" lon="10.4463909"><ele>22.842611482032837</ele></trkpt><trkpt lat="63.4409002" lon="10.4437891"><ele>19.634413910820076</ele></trkpt><trkpt lat="63.4410465" lon="10.443022"><ele>18.731114421156782</ele></trkpt><trkpt lat="63.4410417" lon="10.4427699"><ele>18.460073387806673</ele></trkpt><trkpt lat="63.4414903" lon="10.4407153"><ele>16.61623289778852</ele></trkpt><trkpt lat="63.4416269" lon="10.4394172"><ele>16.25524468064183</ele></trkpt><trkpt lat="63.4417013" lon="10.4394064"><ele>16.273381241643353</ele></trkpt><trkpt lat="63.4417997" lon="10.4394708"><ele>16.298321699409396</ele></trkpt><trkpt lat="63.4423873" lon="10.439562"><ele>15.451974292645524</ele></trkpt><trkpt lat="63.4426919" lon="10.4396371"><ele>13.434338906553716</ele></trkpt><trkpt lat="63.4430061" lon="10.4399965"><ele>11.110819127799774</ele></trkpt><trkpt lat="63.4437064" lon="10.437443"><ele>11.191323058911902</ele></trkpt><trkpt lat="63.4439054" lon="10.436236"><ele>12.443497779740339</ele></trkpt><trkpt lat="63.4439774" lon="10.4353563"><ele>11.477181218435119</ele></trkpt><trkpt lat="63.443987" lon="10.4344497"><ele>10.497322797316171</ele></trkpt><trkpt lat="63.4439078" lon="10.4324595"><ele>9.083144284293855</ele></trkpt><trkpt lat="63.4436632" lon="10.4309199"><ele>6.360758164953889</ele></trkpt><trkpt lat="63.443156559399945" lon="10.4286236282656"><ele>4.8858341687940205</ele></trkpt><trkpt lat="63.44269275361597" lon="10.427465918276368"><ele>4.33461954038601</ele></trkpt><trkpt lat="63.442583016723596" lon="10.427142209363227"><ele>4.189805769753769</ele></trkpt><trkpt lat="63.4422458" lon="10.4266981"><ele>4.461191068116265</ele></trkpt><trkpt lat="63.4421954" lon="10.4262958"><ele>4.617092768261321</ele></trkpt><trkpt lat="63.4408259" lon="10.4245416"><ele>4.461285316336076</ele></trkpt><trkpt lat="63.4406388" lon="10.4241178"><ele>3.913421824076467</ele></trkpt><trkpt lat="63.439519125298915" lon="10.42262713653514"><ele>4.257838860020127</ele></trkpt><trkpt lat="63.43941379028985" lon="10.422344448467129"><ele>4.1318085487660525</ele></trkpt><trkpt lat="63.43888550914509" lon="10.421630028446351"><ele>3.658936052406465</ele></trkpt><trkpt lat="63.438854161457414" lon="10.421513676785224"><ele>3.619441734834769</ele></trkpt><trkpt lat="63.4388638" lon="10.4213498"><ele>3.5787994075045844</ele></trkpt><trkpt lat="63.4390485" lon="10.420749"><ele>3.3995248271743246</ele></trkpt><trkpt lat="63.4390749" lon="10.420572"><ele>3.353645690488126</ele></trkpt><trkpt lat="63.4393507" lon="10.4195902"><ele>3.223148192837663</ele></trkpt><trkpt lat="63.4394251" lon="10.4190967"><ele>3.3638240827696126</ele></trkpt><trkpt lat="63.4392116" lon="10.418807"><ele>3.514681351364852</ele></trkpt><trkpt lat="63.43913" lon="10.4185764"><ele>3.5941162355537837</ele></trkpt><trkpt lat="63.4391636" lon="10.4183967"><ele>3.646729675422053</ele></trkpt><trkpt lat="63.4391372" lon="10.4182706"><ele>3.684340423934291</ele></trkpt><trkpt lat="63.439112" lon="10.4182008"><ele>3.69678980102639</ele></trkpt><trkpt lat="63.4389877691471" lon="10.418091847237752"><ele>3.735067106837592</ele></trkpt><trkpt lat="63.438773541535205" lon="10.41807099583194"><ele>3.7965756184935535</ele></trkpt><trkpt lat="63.438403328772715" lon="10.417770463401448"><ele>3.9095495706736703</ele></trkpt><trkpt lat="63.4382533" lon="10.4176806"><ele>3.9783800917869265</ele></trkpt><trkpt lat="63.4381826" lon="10.4176189"><ele>4.054667539158648</ele></trkpt><trkpt lat="63.4378743" lon="10.4169295"><ele>4.4929205651424615</ele></trkpt><trkpt lat="63.4378443" lon="10.4168168"><ele>4.551874974812263</ele></trkpt><trkpt lat="63.4378179" lon="10.416613"><ele>4.647248345494302</ele></trkpt><trkpt lat="63.4378995" lon="10.4160926"><ele>4.7485308930752215</ele></trkpt><trkpt lat="63.4380338" lon="10.4154221"><ele>4.018373972017246</ele></trkpt><trkpt lat="63.438005" lon="10.4151324"><ele>3.7234333092558103</ele></trkpt><trkpt lat="63.4378155" lon="10.4148749"><ele>3.230615351299014</ele></trkpt><trkpt lat="63.4377627" lon="10.4146389"><ele>2.968352441550629</ele></trkpt><trkpt lat="63.4376596" lon="10.4144029"><ele>2.8955103487025964</ele></trkpt><trkpt lat="63.4375972" lon="10.4140327"><ele>2.9846549076102566</ele></trkpt><trkpt lat="63.4375421" lon="10.4132656"><ele>3.159717694063498</ele></trkpt><trkpt lat="63.4375301" lon="10.4127667"><ele>3.2722951696371654</ele></trkpt><trkpt lat="63.4375768" lon="10.4121149"><ele>3.3321581201430552</ele></trkpt><trkpt lat="63.4382425" lon="10.4081426"><ele>1.7144447927647823</ele></trkpt><trkpt lat="63.4383001" lon="10.4080192"><ele>2.1154396024792246</ele></trkpt><trkpt lat="63.4384104" lon="10.4079816"><ele>2.6763402209567717</ele></trkpt><trkpt lat="63.4384704" lon="10.4078797"><ele>3.0550897169464504</ele></trkpt><trkpt lat="63.4385136" lon="10.4077188"><ele>3.4769735324430453</ele></trkpt><trkpt lat="63.4385471" lon="10.4074667"><ele>4.068171566581636</ele></trkpt><trkpt lat="63.4386215" lon="10.4072628"><ele>4.55300885789116</ele></trkpt><trkpt lat="63.4392788" lon="10.4059807"><ele>3.69623951540805</ele></trkpt><trkpt lat="63.4394682" lon="10.4056481"><ele>3.3429221104421645</ele></trkpt><trkpt lat="63.4395474" lon="10.4055838"><ele>3.2174499501912783</ele></trkpt><trkpt lat="63.439641" lon="10.4055623"><ele>3.0773316262683403</ele></trkpt><trkpt lat="63.4396961" lon="10.4055784"><ele>2.9945817376845065</ele></trkpt><trkpt lat="63.4398352" lon="10.4052887"><ele>2.711530767429746</ele></trkpt><trkpt lat="63.4398161" lon="10.4051117"><ele>2.5902903976697873</ele></trkpt><trkpt lat="63.439828" lon="10.4049293"><ele>2.467551921971943</ele></trkpt><trkpt lat="63.4399312" lon="10.4047308"><ele>2.384425947237411</ele></trkpt><trkpt lat="63.4400535" lon="10.4045323"><ele>2.494378442556731</ele></trkpt><trkpt lat="63.4401327" lon="10.4045323"><ele>2.5520059840607217</ele></trkpt><trkpt lat="63.4402094" lon="10.4045913"><ele>2.611023299043388</ele></trkpt><trkpt lat="63.440267" lon="10.404527"><ele>2.6578650653879126</ele></trkpt><trkpt lat="63.4402454" lon="10.4039369"><ele>2.850491312608011</ele></trkpt><trkpt lat="63.4401782" lon="10.4037545"><ele>2.9273830940311423</ele></trkpt><trkpt lat="63.4400415" lon="10.4036901"><ele>3.0272990650941076</ele></trkpt><trkpt lat="63.4399408" lon="10.4035024"><ele>3.1169272361518643</ele></trkpt><trkpt lat="63.4392692" lon="10.4018769"><ele>3.5687077884326</ele></trkpt><trkpt lat="63.4392236" lon="10.4015336"><ele>3.5396009222365503</ele></trkpt><trkpt lat="63.4391228" lon="10.4012439"><ele>3.5097666882512737</ele></trkpt><trkpt lat="63.4383648" lon="10.3993825"><ele>3.1311418720493265</ele></trkpt><trkpt lat="63.4382785" lon="10.3992001"><ele>3.1003614864561775</ele></trkpt><trkpt lat="63.4380938" lon="10.3985778"><ele>3.1640946507419048</ele></trkpt><trkpt lat="63.4377963" lon="10.3978697"><ele>3.247002728111257</ele></trkpt><trkpt lat="63.4373286" lon="10.3968344"><ele>2.9186734231591043</ele></trkpt><trkpt lat="63.4372206" lon="10.3965447"><ele>2.812657387783265</ele></trkpt><trkpt lat="63.4370047" lon="10.3961048"><ele>2.7679687668060975</ele></trkpt><trkpt lat="63.4369519" lon="10.3961209"><ele>2.79922865345785</ele></trkpt><trkpt lat="63.4365033" lon="10.394517"><ele>3.3442959741117235</ele></trkpt><trkpt lat="63.43599" lon="10.392575"><ele>4.199850987108732</ele></trkpt><trkpt lat="63.4357501" lon="10.3917865"><ele>4.304452783228668</ele></trkpt><trkpt lat="63.4346225" lon="10.3883318"><ele>3.492323285638689</ele></trkpt><trkpt lat="63.4336461" lon="10.3855476"><ele>3.3697365287418712</ele></trkpt><trkpt lat="63.4333222" lon="10.3844962"><ele>3.150670086463267</ele></trkpt><trkpt lat="63.4330967" lon="10.383477"><ele>3.0440092464800403</ele></trkpt><trkpt lat="63.4328448" lon="10.3825221"><ele>3.482308681694503</ele></trkpt><trkpt lat="63.432768" lon="10.3821144"><ele>3.7801379764325853</ele></trkpt><trkpt lat="63.43266" lon="10.381755"><ele>4.071641140359288</ele></trkpt><trkpt lat="63.4325017" lon="10.3816209"><ele>4.326456684389632</ele></trkpt><trkpt lat="63.4323769" lon="10.3813527"><ele>3.6364386736042014</ele></trkpt><trkpt lat="63.432293" lon="10.3810684"><ele>2.89846871021136</ele></trkpt><trkpt lat="63.4322738" lon="10.3802047"><ele>1.0248595604747486</ele></trkpt><trkpt lat="63.4322354" lon="10.3795288"><ele>0.3202261039317801</ele></trkpt><trkpt lat="63.4321562" lon="10.3792552"><ele>0.8212350379525076</ele></trkpt><trkpt lat="63.4319834" lon="10.3787724"><ele>1.7718295720836648</ele></trkpt><trkpt lat="63.4314868" lon="10.3780857"><ele>3.3519892353855605</ele></trkpt><trkpt lat="63.4314148" lon="10.3778819"><ele>3.502133323305083</ele></trkpt><trkpt lat="63.4312684" lon="10.3771148"><ele>3.9843015726691977</ele></trkpt><trkpt lat="63.4312133" lon="10.3766159"><ele>4.267192639024232</ele></trkpt><trkpt lat="63.4311845" lon="10.3740302"><ele>4.855353349810874</ele></trkpt><trkpt lat="63.4311849" lon="10.3740238"><ele>4.857006306908363</ele></trkpt><trkpt lat="63.4313748" lon="10.3721469"><ele>5.4077868952110215</ele></trkpt><trkpt lat="63.4314275" lon="10.3713154"><ele>5.7152737123978685</ele></trkpt><trkpt lat="63.4315835" lon="10.3684937"><ele>6.879146489120614</ele></trkpt><trkpt lat="63.4316171" lon="10.3664713"><ele>6.98399791355407</ele></trkpt><trkpt lat="63.43119" lon="10.3664338"><ele>8.846664144817018</ele></trkpt><trkpt lat="63.4312164" lon="10.3669273"><ele>9.81541940608482</ele></trkpt><trkpt lat="63.4310197" lon="10.370323"><ele>11.234718871487782</ele></trkpt><trkpt lat="63.4305662" lon="10.3736543"><ele>10.699771247390832</ele></trkpt><trkpt lat="63.43056611948776" lon="10.37366152768047"><ele>10.70903896839074</ele></trkpt><trkpt lat="63.429988164618166" lon="10.373380494564243"><ele>12.404111401980545</ele></trkpt><trkpt lat="63.4296856" lon="10.3729623"><ele>13.048460298556758</ele></trkpt><trkpt lat="63.4291649" lon="10.371884"><ele>14.285266496875538</ele></trkpt><trkpt lat="63.4290977" lon="10.3716963"><ele>14.658799893312546</ele></trkpt><trkpt lat="63.4290425" lon="10.3714442"><ele>15.094892499700679</ele></trkpt><trkpt lat="63.4288745" lon="10.3712242"><ele>15.771167111140805</ele></trkpt><trkpt lat="63.4287594" lon="10.3710096"><ele>16.291746823145175</ele></trkpt><trkpt lat="63.4281403" lon="10.3702103"><ele>16.054505596911365</ele></trkpt><trkpt lat="63.4277299" lon="10.3698456"><ele>15.115155651688605</ele></trkpt><trkpt lat="63.4271876" lon="10.369631"><ele>15.154104981629981</ele></trkpt><trkpt lat="63.4267605" lon="10.3696793"><ele>15.344285175563952</ele></trkpt><trkpt lat="63.4264389" lon="10.3698938"><ele>15.923003835712109</ele></trkpt><trkpt lat="63.4259709" lon="10.370323"><ele>16.6026819435458</ele></trkpt><trkpt lat="63.4254886" lon="10.3710901"><ele>14.607063333111542</ele></trkpt><trkpt lat="63.4251358" lon="10.3720611"><ele>13.735911282882574</ele></trkpt><trkpt lat="63.4249918" lon="10.3726619"><ele>13.779543270437124</ele></trkpt><trkpt lat="63.4247494" lon="10.3731983"><ele>13.64890410250421</ele></trkpt><trkpt lat="63.424489" lon="10.3735819"><ele>12.075213625568061</ele></trkpt><trkpt lat="63.4240162" lon="10.3741612"><ele>9.354503579083385</ele></trkpt><trkpt lat="63.4238494" lon="10.3743168"><ele>9.219080418050698</ele></trkpt><trkpt lat="63.4233382" lon="10.3746709"><ele>9.02266267784117</ele></trkpt><trkpt lat="63.4227622" lon="10.3749927"><ele>8.342432184426633</ele></trkpt><trkpt lat="63.421831" lon="10.3757867"><ele>7.625678678143707</ele></trkpt><trkpt lat="63.4212766" lon="10.3763499"><ele>8.279002108681297</ele></trkpt><trkpt lat="63.4200956" lon="10.3771814"><ele>10.122377521172787</ele></trkpt><trkpt lat="63.4174096" lon="10.3790053"><ele>21.018746006883347</ele></trkpt><trkpt lat="63.4162957" lon="10.3797349"><ele>22.686627099793622</ele></trkpt><trkpt lat="63.4161709" lon="10.3799173"><ele>23.186479971975064</ele></trkpt><trkpt lat="63.4157244" lon="10.380915"><ele>25.303010591957523</ele></trkpt><trkpt lat="63.4155371" lon="10.3811403"><ele>25.406261568614422</ele></trkpt><trkpt lat="63.4152251" lon="10.3813335"><ele>24.439155803144043</ele></trkpt><trkpt lat="63.4145817" lon="10.3815159"><ele>23.429399575279565</ele></trkpt><trkpt lat="63.4139142" lon="10.3818592"><ele>25.16239346486332</ele></trkpt><trkpt lat="63.4131076" lon="10.3821167"><ele>25.483075529590764</ele></trkpt><trkpt lat="63.4129971" lon="10.3822669"><ele>25.51694737192488</ele></trkpt><trkpt lat="63.4130451" lon="10.3836616"><ele>24.216694170596636</ele></trkpt><trkpt lat="63.4129299" lon="10.3836938"><ele>23.974015601683274</ele></trkpt><trkpt lat="63.4122192" lon="10.3834578"><ele>22.729043812459</ele></trkpt><trkpt lat="63.4122336" lon="10.3838547"><ele>22.43875449401761</ele></trkpt><trkpt lat="63.4121712" lon="10.3841552"><ele>22.197260165806775</ele></trkpt><trkpt lat="63.4119743" lon="10.3842732"><ele>22.594342304054877</ele></trkpt><trkpt lat="63.4117775" lon="10.3843268"><ele>23.04579220981536</ele></trkpt><trkpt lat="63.4115518" lon="10.3847989"><ele>23.74981165103562</ele></trkpt><trkpt lat="63.411517" lon="10.384909"><ele>23.887183184595706</ele></trkpt><trkpt lat="63.411496" lon="10.38499"><ele>23.982586422976436</ele></trkpt><trkpt lat="63.411496" lon="10.38499"><ele>23.982586422976436</ele></trkpt><trkpt lat="63.411438" lon="10.384939"><ele>24.124518303259496</ele></trkpt><trkpt lat="63.411402" lon="10.384919"><ele>24.208990043194248</ele></trkpt><trkpt lat="63.411356" lon="10.384912"><ele>24.26984797694461</ele></trkpt><trkpt lat="63.411316" lon="10.384922"><ele>24.318676736754185</ele></trkpt><trkpt lat="63.411303" lon="10.384928"><ele>24.334780647910918</ele></trkpt><trkpt lat="63.411277" lon="10.384941"><ele>24.367102694148954</ele></trkpt><trkpt lat="63.411216" lon="10.384954"><ele>24.44144061429453</ele></trkpt><trkpt lat="63.411179" lon="10.384947"><ele>24.48648772734311</ele></trkpt><trkpt lat="63.411148" lon="10.384934"><ele>24.524752039343916</ele></trkpt><trkpt lat="63.411103" lon="10.384904"><ele>24.581722214164383</ele></trkpt><trkpt lat="63.4108459" lon="10.3844556"><ele>24.977402365356028</ele></trkpt><trkpt lat="63.410649" lon="10.3840801"><ele>25.291458512238158</ele></trkpt><trkpt lat="63.4103032" lon="10.3839835"><ele>24.782953586185577</ele></trkpt><trkpt lat="63.409919" lon="10.3841981"><ele>24.151523685122342</ele></trkpt><trkpt lat="63.4096597" lon="10.3840586"><ele>23.73142982044588</ele></trkpt><trkpt lat="63.4094292" lon="10.3841659"><ele>23.368931576617047</ele></trkpt><trkpt lat="63.4084495" lon="10.3854855"><ele>20.985966322541618</ele></trkpt><trkpt lat="63.4079548" lon="10.385861"><ele>19.211105366795856</ele></trkpt><trkpt lat="63.4074986" lon="10.385904"><ele>17.068510284324613</ele></trkpt><trkpt lat="63.4071672" lon="10.3857323"><ele>15.27766665542989</ele></trkpt><trkpt lat="63.4069607" lon="10.3858825"><ele>13.797617221309824</ele></trkpt><trkpt lat="63.4059761" lon="10.3872021"><ele>7.501434658822312</ele></trkpt><trkpt lat="63.4057167" lon="10.3875025"><ele>6.312786378267333</ele></trkpt><trkpt lat="63.4053565" lon="10.3876849"><ele>6.678735006099328</ele></trkpt><trkpt lat="63.4045928" lon="10.3878566"><ele>8.277274060478614</ele></trkpt><trkpt lat="63.4043334" lon="10.3878673"><ele>9.038940570645204</ele></trkpt><trkpt lat="63.4041269" lon="10.3873845"><ele>9.916539165966022</ele></trkpt><trkpt lat="63.4034064" lon="10.3880926"><ele>11.637862143426798</ele></trkpt><trkpt lat="63.4028204" lon="10.3885218"><ele>11.801774030244607</ele></trkpt><trkpt lat="63.4024169" lon="10.3887578"><ele>11.348239990671674</ele></trkpt><trkpt lat="63.4022272" lon="10.3887525"><ele>11.151461904206482</ele></trkpt><trkpt lat="63.4014874" lon="10.3884628"><ele>10.46986813483298</ele></trkpt><trkpt lat="63.4002144" lon="10.3884574"><ele>8.266153331060535</ele></trkpt><trkpt lat="63.3992272" lon="10.3881677"><ele>9.43541468729429</ele></trkpt><trkpt lat="63.3982832" lon="10.3875937"><ele>9.008895247278737</ele></trkpt><trkpt lat="63.3975409" lon="10.3873041"><ele>8.10076081775222</ele></trkpt><trkpt lat="63.3972454" lon="10.3870251"><ele>8.30932778734564</ele></trkpt><trkpt lat="63.3967578" lon="10.3863599"><ele>9.708870047901138</ele></trkpt><trkpt lat="63.3960803" lon="10.385743"><ele>11.620740902548464</ele></trkpt><trkpt lat="63.3955158" lon="10.3856304"><ele>8.926270228428729</ele></trkpt><trkpt lat="63.395475" lon="10.3858932"><ele>8.334073206589693</ele></trkpt><trkpt lat="63.3957488" lon="10.3873255"><ele>18.48127887506501</ele></trkpt><trkpt lat="63.3958713" lon="10.3876367"><ele>21.667148583745828</ele></trkpt><trkpt lat="63.3963326" lon="10.3881034"><ele>22.945337742345778</ele></trkpt><trkpt lat="63.3968515" lon="10.3887739"><ele>22.434796643596606</ele></trkpt><trkpt lat="63.3971734" lon="10.3893533"><ele>22.595503613783784</ele></trkpt><trkpt lat="63.3975169" lon="10.3898736"><ele>22.821574933102493</ele></trkpt><trkpt lat="63.39811495844872" lon="10.390551949823664"><ele>24.401462323435236</ele></trkpt><trkpt lat="63.398778" lon="10.3919175"><ele>26.833917881124215</ele></trkpt><trkpt lat="63.3998085" lon="10.3933605"><ele>30.084725690573</ele></trkpt><trkpt lat="63.4005627" lon="10.3940579"><ele>32.43770137871924</ele></trkpt><trkpt lat="63.4016651" lon="10.3948143"><ele>34.5448288171198</ele></trkpt><trkpt lat="63.4041557" lon="10.3960159"><ele>35.35215186988643</ele></trkpt><trkpt lat="63.405198" lon="10.3965362"><ele>33.6159200221216</ele></trkpt><trkpt lat="63.4066461" lon="10.3971531"><ele>29.74825887028712</ele></trkpt><trkpt lat="63.4071024" lon="10.3970298"><ele>29.812719758796668</ele></trkpt><trkpt lat="63.407549" lon="10.3966972"><ele>29.934961950793227</ele></trkpt><trkpt lat="63.4077507" lon="10.3966703"><ele>29.115036329759555</ele></trkpt><trkpt lat="63.4083727" lon="10.3969868"><ele>26.526407607802735</ele></trkpt><trkpt lat="63.4087377" lon="10.3972282"><ele>26.35704117847555</ele></trkpt><trkpt lat="63.4096765" lon="10.397711"><ele>26.876593878605355</ele></trkpt><trkpt lat="63.410769" lon="10.3979846"><ele>26.439180858526182</ele></trkpt><trkpt lat="63.4112564" lon="10.39799"><ele>26.179405159826857</ele></trkpt><trkpt lat="63.4115566" lon="10.3978505"><ele>26.65372619013587</ele></trkpt><trkpt lat="63.4119023" lon="10.3978505"><ele>27.18849383979765</ele></trkpt><trkpt lat="63.4121952" lon="10.3977969"><ele>27.01961494026025</ele></trkpt><trkpt lat="63.4124329" lon="10.3976252"><ele>26.70626235095083</ele></trkpt><trkpt lat="63.4126442" lon="10.3976145"><ele>26.44115096418015</ele></trkpt><trkpt lat="63.4129443" lon="10.3975716"><ele>26.090337716920743</ele></trkpt><trkpt lat="63.4132012" lon="10.3974804"><ele>25.84569304282918</ele></trkpt><trkpt lat="63.4136862" lon="10.397416"><ele>25.3887465467096</ele></trkpt><trkpt lat="63.4141759" lon="10.3972604"><ele>24.254566651667453</ele></trkpt><trkpt lat="63.4149226" lon="10.3968903"><ele>23.760542866435234</ele></trkpt><trkpt lat="63.4160005" lon="10.3962305"><ele>23.476129086642292</ele></trkpt><trkpt lat="63.4161685" lon="10.3959354"><ele>22.725907312888626</ele></trkpt><trkpt lat="63.4178321" lon="10.3950932"><ele>21.958206452005594</ele></trkpt><trkpt lat="63.419666" lon="10.3941383"><ele>18.762744961510382</ele></trkpt><trkpt lat="63.4203717" lon="10.3938326"><ele>17.499512068446194</ele></trkpt><trkpt lat="63.4209261" lon="10.3935429"><ele>16.80740097859891</ele></trkpt><trkpt lat="63.4213522" lon="10.3938218"><ele>16.9301861785731</ele></trkpt><trkpt lat="63.4221646" lon="10.3937816"><ele>15.992980312410497</ele></trkpt><trkpt lat="63.4226818" lon="10.3940713"><ele>14.964266930622449</ele></trkpt><trkpt lat="63.4227778" lon="10.3939184"><ele>14.71538058746373</ele></trkpt><trkpt lat="63.4228174" lon="10.3931164"><ele>13.953189826014803</ele></trkpt><trkpt lat="63.422881" lon="10.3914803"><ele>12.715875677926888</ele></trkpt><trkpt lat="63.4228966" lon="10.389364"><ele>11.1299003764239</ele></trkpt><trkpt lat="63.423157" lon="10.3886747"><ele>10.66742025874468</ele></trkpt><trkpt lat="63.4233766" lon="10.3881624"><ele>11.950930520140567</ele></trkpt><trkpt lat="63.423985" lon="10.3861078"><ele>10.97341491467926</ele></trkpt><trkpt lat="63.4247218" lon="10.3845253"><ele>7.826472207459318</ele></trkpt><trkpt lat="63.4248082" lon="10.3842919"><ele>7.572896110669264</ele></trkpt><trkpt lat="63.425053" lon="10.3833907"><ele>7.687905804992151</ele></trkpt><trkpt lat="63.42542772651423" lon="10.381777"><ele>7.568956109643369</ele></trkpt><trkpt lat="63.425428" lon="10.381777"><ele>7.568552190912199</ele></trkpt><trkpt lat="63.425492" lon="10.381516"><ele>7.371897569624616</ele></trkpt><trkpt lat="63.425492" lon="10.381516"><ele>7.371897569624616</ele></trkpt><trkpt lat="63.425534" lon="10.381326"><ele>7.231871442581385</ele></trkpt><trkpt lat="63.425562" lon="10.381355"><ele>7.1862941495094494</ele></trkpt><trkpt lat="63.425572" lon="10.381365"><ele>7.170114332978378</ele></trkpt><trkpt lat="63.425665" lon="10.381457"><ele>7.0199106834198295</ele></trkpt><trkpt lat="63.425801" lon="10.381603"><ele>6.797085675135408</ele></trkpt><trkpt lat="63.425927" lon="10.381735"><ele>6.664600293887053</ele></trkpt><trkpt lat="63.426062" lon="10.38188"><ele>6.603301732974989</ele></trkpt><trkpt lat="63.42619" lon="10.382014"><ele>6.5454548705626125</ele></trkpt><trkpt lat="63.426286" lon="10.382101"><ele>6.5030588945714705</ele></trkpt><trkpt lat="63.426308" lon="10.382107"><ele>6.4939881843286615</ele></trkpt><trkpt lat="63.42634" lon="10.382105"><ele>6.480886417905111</ele></trkpt><trkpt lat="63.426379" lon="10.382081"><ele>6.464331098851306</ele></trkpt><trkpt lat="63.42644" lon="10.382054"><ele>6.4388809147243435</ele></trkpt><trkpt lat="63.426477" lon="10.382047"><ele>6.423683778920662</ele></trkpt><trkpt lat="63.426512" lon="10.382057"><ele>6.409242790259779</ele></trkpt><trkpt lat="63.426552" lon="10.382081"><ele>6.392292538745395</ele></trkpt><trkpt lat="63.426579" lon="10.382136"><ele>6.377342382093455</ele></trkpt><trkpt lat="63.426614" lon="10.382223"><ele>6.355920366383952</ele></trkpt><trkpt lat="63.426537" lon="10.382381"><ele>6.338811620565046</ele></trkpt><trkpt lat="63.426439" lon="10.382573"><ele>6.410473173305089</ele></trkpt><trkpt lat="63.426303" lon="10.38284"><ele>6.5100114337431005</ele></trkpt><trkpt lat="63.426289" lon="10.382869"><ele>6.520507659076945</ele></trkpt><trkpt lat="63.426106" lon="10.383194"><ele>6.649038072664121</ele></trkpt><trkpt lat="63.425763" lon="10.383747"><ele>6.882533745770234</ele></trkpt><trkpt lat="63.4256314" lon="10.384013"><ele>6.981557301374683</ele></trkpt><trkpt lat="63.4245874" lon="10.3861293"><ele>7.24583983795689</ele></trkpt><trkpt lat="63.4243942" lon="10.3866121"><ele>7.852225435511691</ele></trkpt><trkpt lat="63.4240186" lon="10.388047"><ele>10.152641230280087</ele></trkpt><trkpt lat="63.4238146" lon="10.3891011"><ele>9.9233052954913</ele></trkpt><trkpt lat="63.4236322" lon="10.3902545"><ele>9.862110931731147</ele></trkpt><trkpt lat="63.4233262" lon="10.3929608"><ele>8.551854915881353</ele></trkpt><trkpt lat="63.4232014" lon="10.3938567"><ele>7.27607820157764</ele></trkpt><trkpt lat="63.423211" lon="10.3942912"><ele>6.721905194309316</ele></trkpt><trkpt lat="63.4232374" lon="10.3946292"><ele>6.28482363806923</ele></trkpt><trkpt lat="63.4232014" lon="10.3955089"><ele>5.159518567150775</ele></trkpt><trkpt lat="63.4232002" lon="10.3973784"><ele>5.045023779526793</ele></trkpt><trkpt lat="63.423445" lon="10.3986015"><ele>5.455139359198019</ele></trkpt><trkpt lat="63.423805" lon="10.3998273"><ele>5.9114512312331735</ele></trkpt><trkpt lat="63.4241986" lon="10.4006937"><ele>6.087891960908697</ele></trkpt><trkpt lat="63.4254058" lon="10.402472"><ele>7.490334911850815</ele></trkpt><trkpt lat="63.425587" lon="10.4028367"><ele>8.937906886526552</ele></trkpt><trkpt lat="63.425563" lon="10.4035073"><ele>10.424699955129729</ele></trkpt><trkpt lat="63.4260981" lon="10.4037004"><ele>9.264889438915114</ele></trkpt><trkpt lat="63.4269296" lon="10.4033142"><ele>10.255041536172765</ele></trkpt><trkpt lat="63.4273424" lon="10.403164"><ele>11.10704456224472</ele></trkpt><trkpt lat="63.4277827" lon="10.4030647"><ele>7.916447182751694</ele></trkpt><trkpt lat="63.4280131" lon="10.4029333"><ele>6.202100449917502</ele></trkpt><trkpt lat="63.4280695" lon="10.4028046"><ele>5.621036588971617</ele></trkpt><trkpt lat="63.4281895" lon="10.4017987"><ele>6.192970773078738</ele></trkpt><trkpt lat="63.4283514" lon="10.4002189"><ele>8.979160577884745</ele></trkpt><trkpt lat="63.4283178" lon="10.4000553"><ele>9.395199009840299</ele></trkpt><trkpt lat="63.4281031" lon="10.3999185"><ele>10.548625204232676</ele></trkpt><trkpt lat="63.4279519" lon="10.3998005"><ele>11.376035638532432</ele></trkpt><trkpt lat="63.4279159" lon="10.3996315"><ele>11.808636779988284</ele></trkpt><trkpt lat="63.4276951" lon="10.3965657"><ele>13.443480924788668</ele></trkpt><trkpt lat="63.4285998" lon="10.3960561"><ele>13.807177788130927</ele></trkpt><trkpt lat="63.4291985" lon="10.3957503"><ele>13.12282483784019</ele></trkpt><trkpt lat="63.4300479" lon="10.3952836"><ele>11.040428709651122</ele></trkpt><trkpt lat="63.4304727" lon="10.3961169"><ele>10.790670677588157</ele></trkpt><trkpt lat="63.43024" lon="10.4013741"><ele>10.636233347125968</ele></trkpt><trkpt lat="63.4317084" lon="10.4026132"><ele>8.677515068258606</ele></trkpt><trkpt lat="63.4320084" lon="10.4027478"><ele>8.170749631579431</ele></trkpt><trkpt lat="63.4330689" lon="10.4037455"><ele>6.448652049975532</ele></trkpt><trkpt lat="63.4321908" lon="10.4079083"><ele>3.6191617901246516</ele></trkpt><trkpt lat="63.4320948" lon="10.4081122"><ele>4.057630072924348</ele></trkpt><trkpt lat="63.4320516" lon="10.4082517"><ele>4.284871934931723</ele></trkpt><trkpt lat="63.4324019" lon="10.4089598"><ele>5.698953758417796</ele></trkpt><trkpt lat="63.43310481608837" lon="10.410770378281061"><ele>5.822369580892244</ele></trkpt><trkpt lat="63.43503047912645" lon="10.415872575703156"><ele>5.767388922953036</ele></trkpt><trkpt lat="63.43552223605954" lon="10.417424676192436"><ele>6.843064569628422</ele></trkpt><trkpt lat="63.4349498" lon="10.4195599"><ele>11.04660662458782</ele></trkpt><trkpt lat="63.434897" lon="10.4207722"><ele>12.255982090324155</ele></trkpt><trkpt lat="63.4348586" lon="10.4209975"><ele>12.46777001102329</ele></trkpt><trkpt lat="63.4349498" lon="10.4239158"><ele>13.596408075606256</ele></trkpt><trkpt lat="63.435041" lon="10.4241196"><ele>13.494037410472096</ele></trkpt><trkpt lat="63.4356455" lon="10.4239694"><ele>12.530183417191555</ele></trkpt><trkpt lat="63.4357367" lon="10.4237441"><ele>12.240342062848939</ele></trkpt><trkpt lat="63.435847" lon="10.4236046"><ele>11.970080687466508</ele></trkpt><trkpt lat="63.4359478" lon="10.4239158"><ele>11.603592694074937</ele></trkpt><trkpt lat="63.4360437" lon="10.4239479"><ele>11.396783502827248</ele></trkpt><trkpt lat="63.4361925" lon="10.4238836"><ele>11.328491722979782</ele></trkpt><trkpt lat="63.4364708" lon="10.4235885"><ele>11.225185490210368</ele></trkpt><trkpt lat="63.436629" lon="10.4235772"><ele>11.172097152625378</ele></trkpt><trkpt lat="63.4368209" lon="10.4237596"><ele>11.102159723230969</ele></trkpt><trkpt lat="63.4371543" lon="10.4245965"><ele>10.953262732894148</ele></trkpt><trkpt lat="63.4372479" lon="10.4247521"><ele>10.919512157496245</ele></trkpt><trkpt lat="63.4387671" lon="10.4283373"><ele>12.52719254314261</ele></trkpt><trkpt lat="63.4389399" lon="10.4281228"><ele>12.418950003378612</ele></trkpt><trkpt lat="63.4394148" lon="10.4301827"><ele>12.745193202903367</ele></trkpt><trkpt lat="63.4394724" lon="10.4302042"><ele>12.852342443095813</ele></trkpt><trkpt lat="63.439693" lon="10.4311161"><ele>13.702974428921287</ele></trkpt><trkpt lat="63.4398466" lon="10.4318993"><ele>14.406881058141703</ele></trkpt><trkpt lat="63.4399888" lon="10.4327331"><ele>15.141395591769012</ele></trkpt><trkpt lat="63.4403821" lon="10.4362199"><ele>17.620036506023176</ele></trkpt><trkpt lat="63.4405356" lon="10.4381404"><ele>17.768091908309238</ele></trkpt><trkpt lat="63.4406508" lon="10.4413269"><ele>19.377540011763223</ele></trkpt><trkpt lat="63.4406652" lon="10.4433761"><ele>21.340918764205938</ele></trkpt><trkpt lat="63.4403581" lon="10.4442451"><ele>22.407045924550786</ele></trkpt><trkpt lat="63.4400511" lon="10.4445562"><ele>23.52797846385566</ele></trkpt><trkpt lat="63.4395186" lon="10.4452965"><ele>26.730474034210022</ele></trkpt><trkpt lat="63.4387702" lon="10.4466698"><ele>29.825638173640566</ele></trkpt><trkpt lat="63.4386551" lon="10.4467664"><ele>30.21645390243102</ele></trkpt><trkpt lat="63.4382905" lon="10.4475818"><ele>32.07601837840864</ele></trkpt><trkpt lat="63.4380746" lon="10.4482899"><ele>33.257797278066306</ele></trkpt><trkpt lat="63.4378827" lon="10.449352"><ele>33.0339295294653</ele></trkpt><trkpt lat="63.4376956" lon="10.451412"><ele>33.42103871931213</ele></trkpt><trkpt lat="63.4375229" lon="10.4529033"><ele>34.3372419389586</ele></trkpt><trkpt lat="63.4371871" lon="10.4545502"><ele>35.511745447467824</ele></trkpt><trkpt lat="63.4370383" lon="10.4551403"><ele>35.839267239147475</ele></trkpt><trkpt lat="63.4365058" lon="10.4568836"><ele>37.66665131309203</ele></trkpt><trkpt lat="63.436429" lon="10.457345"><ele>38.17981259442787</ele></trkpt><trkpt lat="63.4364409" lon="10.4577581"><ele>38.231451047012854</ele></trkpt><trkpt lat="63.4365345" lon="10.4581604"><ele>38.19202671628815</ele></trkpt><trkpt lat="63.43676" lon="10.45889"><ele>38.114924158337885</ele></trkpt><trkpt lat="63.4376188" lon="10.4601667"><ele>36.9506762833522</ele></trkpt><trkpt lat="63.4381538" lon="10.4610679"><ele>36.15048991606163</ele></trkpt><trkpt lat="63.4381789" lon="10.4604939"><ele>35.83510329920773</ele></trkpt><trkpt lat="63.4383433" lon="10.4596839"><ele>34.94221973935418</ele></trkpt><trkpt lat="63.4389501" lon="10.457404"><ele>33.26636566559282</ele></trkpt><trkpt lat="63.4394659" lon="10.4551671"><ele>32.13742517217917</ele></trkpt><trkpt lat="63.43996" lon="10.4526243"><ele>28.15030581225124</ele></trkpt><trkpt lat="63.440255" lon="10.4508433"><ele>26.889891507660597</ele></trkpt><trkpt lat="63.4404253" lon="10.4494325"><ele>26.524034464548762</ele></trkpt><trkpt lat="63.440646" lon="10.4473726"><ele>23.991345742737483</ele></trkpt><trkpt lat="63.4407347" lon="10.4463909"><ele>22.799123003341233</ele></trkpt><trkpt lat="63.4409002" lon="10.4437891"><ele>19.408116721260328</ele></trkpt><trkpt lat="63.4410465" lon="10.443022"><ele>18.5583837683565</ele></trkpt><trkpt lat="63.4410417" lon="10.4427699"><ele>18.320880143342592</ele></trkpt><trkpt lat="63.4414903" lon="10.4407153"><ele>16.64885859754289</ele></trkpt><trkpt lat="63.4416269" lon="10.4394172"><ele>16.207380105516716</ele></trkpt><trkpt lat="63.4417013" lon="10.4394064"><ele>16.2075783184351</ele></trkpt><trkpt lat="63.4417997" lon="10.4394708"><ele>16.207850890557193</ele></trkpt><trkpt lat="63.4423873" lon="10.439562"><ele>15.590111142767334</ele></trkpt><trkpt lat="63.4426919" lon="10.4396371"><ele>13.597844800988856</ele></trkpt><trkpt lat="63.4430061" lon="10.4399965"><ele>11.303540150318224</ele></trkpt><trkpt lat="63.4437064" lon="10.437443"><ele>11.689436166031541</ele></trkpt><trkpt lat="63.4439054" lon="10.436236"><ele>13.75340516302801</ele></trkpt><trkpt lat="63.4439774" lon="10.4353563"><ele>12.357422485669359</ele></trkpt><trkpt lat="63.443987" lon="10.4344497"><ele>10.690998676430779</ele></trkpt><trkpt lat="63.4439078" lon="10.4324595"><ele>9.200693015976196</ele></trkpt><trkpt lat="63.4436632" lon="10.4309199"><ele>6.524465724075409</ele></trkpt><trkpt lat="63.44315765751964" lon="10.42862389523424"><ele>4.8384198178488775</ele></trkpt><trkpt lat="63.442692361429295" lon="10.427463444833904"><ele>4.256099838350318</ele></trkpt><trkpt lat="63.44258301669418" lon="10.427138652539996"><ele>4.098148406037966</ele></trkpt><trkpt lat="63.4422458" lon="10.4266981"><ele>4.351151939795496</ele></trkpt><trkpt lat="63.4421954" lon="10.4262958"><ele>4.547594988989977</ele></trkpt><trkpt lat="63.4408259" lon="10.4245416"><ele>4.485807937877491</ele></trkpt><trkpt lat="63.4406388" lon="10.4241178"><ele>3.94005126629179</ele></trkpt><trkpt lat="63.4395212319952" lon="10.42262713653514"><ele>4.218274576689605</ele></trkpt><trkpt lat="63.43941218997515" lon="10.422346171553649"><ele>4.130565392099343</ele></trkpt><trkpt lat="63.43888641485012" lon="10.421629257938406"><ele>3.805890305602542</ele></trkpt><trkpt lat="63.438854161457414" lon="10.421513676785224"><ele>3.773770017505407</ele></trkpt><trkpt lat="63.4388638" lon="10.4213498"><ele>3.725691272241178</ele></trkpt><trkpt lat="63.4390485" lon="10.420749"><ele>3.5007625881067392</ele></trkpt><trkpt lat="63.4390749" lon="10.420572"><ele>3.4431998604459535</ele></trkpt><trkpt lat="63.4393507" lon="10.4195902"><ele>3.1768043615783363</ele></trkpt><trkpt lat="63.4394251" lon="10.4190967"><ele>3.270715808026852</ele></trkpt><trkpt lat="63.4392116" lon="10.418807"><ele>3.371424069463144</ele></trkpt><trkpt lat="63.43913" lon="10.4185764"><ele>3.4244526650260476</ele></trkpt><trkpt lat="63.4391636" lon="10.4183967"><ele>3.4595759846158556</ele></trkpt><trkpt lat="63.4391372" lon="10.4182706"><ele>3.4846839103343425</ele></trkpt><trkpt lat="63.439112" lon="10.4182008"><ele>3.5008611350072143</ele></trkpt><trkpt lat="63.438985295318865" lon="10.418094613452956"><ele>3.558217947271784</ele></trkpt><trkpt lat="63.43877477845843" lon="10.418070995830831"><ele>3.6480411784620146</ele></trkpt><trkpt lat="63.43840456570927" lon="10.417767697187296"><ele>3.81605790278499</ele></trkpt><trkpt lat="63.4382533" lon="10.4176806"><ele>3.882621130897802</ele></trkpt><trkpt lat="63.4381826" lon="10.4176189"><ele>3.942748044742325</ele></trkpt><trkpt lat="63.4378743" lon="10.4169295"><ele>4.334690393874333</ele></trkpt><trkpt lat="63.4378443" lon="10.4168168"><ele>4.38741502655833</ele></trkpt><trkpt lat="63.4378179" lon="10.416613"><ele>4.472710188789895</ele></trkpt><trkpt lat="63.4378995" lon="10.4160926"><ele>4.69439756169832</ele></trkpt><trkpt lat="63.4380338" lon="10.4154221"><ele>4.032492429074183</ele></trkpt><trkpt lat="63.438005" lon="10.4151324"><ele>3.7585291103334257</ele></trkpt><trkpt lat="63.4378155" lon="10.4148749"><ele>3.3007623106228046</ele></trkpt><trkpt lat="63.4377627" lon="10.4146389"><ele>3.05715257412688</ele></trkpt><trkpt lat="63.4376596" lon="10.4144029"><ele>2.8633731692513797</ele></trkpt><trkpt lat="63.4375972" lon="10.4140327"><ele>2.9580111708142036</ele></trkpt><trkpt lat="63.4375421" lon="10.4132656"><ele>3.143862023193316</ele></trkpt><trkpt lat="63.4375301" lon="10.4127667"><ele>3.263376971046898</ele></trkpt><trkpt lat="63.4375768" lon="10.4121149"><ele>2.916140930952513</ele></trkpt><trkpt lat="63.4382425" lon="10.4081426"><ele>1.767077634788908</ele></trkpt><trkpt lat="63.4383001" lon="10.4080192"><ele>2.109031549621568</ele></trkpt><trkpt lat="63.4384104" lon="10.4079816"><ele>2.587347372355167</ele></trkpt><trkpt lat="63.4384704" lon="10.4078797"><ele>2.910331285754936</ele></trkpt><trkpt lat="63.4385136" lon="10.4077188"><ele>3.270098591512614</ele></trkpt><trkpt lat="63.4385471" lon="10.4074667"><ele>3.774250957870993</ele></trkpt><trkpt lat="63.4386215" lon="10.4072628"><ele>4.278737452692464</ele></trkpt><trkpt lat="63.4392788" lon="10.4059807"><ele>3.5350721067273905</ele></trkpt><trkpt lat="63.4394682" lon="10.4056481"><ele>3.185289790836822</ele></trkpt><trkpt lat="63.4395474" lon="10.4055838"><ele>3.0514749806995707</ele></trkpt><trkpt lat="63.439641" lon="10.4055623"><ele>2.9020401827730344</ele></trkpt><trkpt lat="63.4396961" lon="10.4055784"><ele>2.81378825017239</ele></trkpt><trkpt lat="63.4398352" lon="10.4052887"><ele>2.5119172074800415</ele></trkpt><trkpt lat="63.4398161" lon="10.4051117"><ele>2.3826155597841363</ele></trkpt><trkpt lat="63.439828" lon="10.4049293"><ele>2.251716197015581</ele></trkpt><trkpt lat="63.4399312" lon="10.4047308"><ele>2.0433917499884404</ele></trkpt><trkpt lat="63.4400535" lon="10.4045323"><ele>2.19707950104138</ele></trkpt><trkpt lat="63.4401327" lon="10.4045323"><ele>2.2776292623427348</ele></trkpt><trkpt lat="63.4402094" lon="10.4045913"><ele>2.36012160038861</ele></trkpt><trkpt lat="63.440267" lon="10.404527"><ele>2.425595382533607</ele></trkpt><trkpt lat="63.4402454" lon="10.4039369"><ele>2.6948416114894798</ele></trkpt><trkpt lat="63.4401782" lon="10.4037545"><ele>2.8023182533524644</ele></trkpt><trkpt lat="63.4400415" lon="10.4036901"><ele>2.944398984591844</ele></trkpt><trkpt lat="63.4399408" lon="10.4035024"><ele>3.0102447973639515</ele></trkpt><trkpt lat="63.4392692" lon="10.4018769"><ele>3.387555685138278</ele></trkpt><trkpt lat="63.4392236" lon="10.4015336"><ele>3.4056792602746366</ele></trkpt><trkpt lat="63.4391228" lon="10.4012439"><ele>3.4242557355855148</ele></trkpt><trkpt lat="63.4383648" lon="10.3993825"><ele>3.0351618150166004</ele></trkpt><trkpt lat="63.4382785" lon="10.3992001"><ele>2.9677422893391006</ele></trkpt><trkpt lat="63.4380938" lon="10.3985778"><ele>3.0349339818870154</ele></trkpt><trkpt lat="63.4377963" lon="10.3978697"><ele>3.1472051305323534</ele></trkpt><trkpt lat="63.4373286" lon="10.3968344"><ele>3.0253565310468167</ele></trkpt><trkpt lat="63.4372206" lon="10.3965447"><ele>2.971066992892742</ele></trkpt><trkpt lat="63.4370047" lon="10.3961048"><ele>2.9321125057219284</ele></trkpt><trkpt lat="63.4369519" lon="10.3961209"><ele>2.961253665170662</ele></trkpt><trkpt lat="63.4365033" lon="10.394517"><ele>3.441410948601873</ele></trkpt><trkpt lat="63.43599" lon="10.392575"><ele>4.185915436901516</ele></trkpt><trkpt lat="63.4357501" lon="10.3917865"><ele>4.311347111030018</ele></trkpt><trkpt lat="63.4346225" lon="10.3883318"><ele>3.4864519489155708</ele></trkpt><trkpt lat="63.4336461" lon="10.3855476"><ele>3.377013443779564</ele></trkpt><trkpt lat="63.4333222" lon="10.3844962"><ele>3.1438289171104508</ele></trkpt><trkpt lat="63.4330967" lon="10.383477"><ele>2.9865943625732783</ele></trkpt><trkpt lat="63.4328448" lon="10.3825221"><ele>3.312318603426109</ele></trkpt><trkpt lat="63.432768" lon="10.3821144"><ele>3.6084259414929765</ele></trkpt><trkpt lat="63.43266" lon="10.381755"><ele>3.8982437244760186</ele></trkpt><trkpt lat="63.4325017" lon="10.3816209"><ele>4.151586004009845</ele></trkpt><trkpt lat="63.4323769" lon="10.3813527"><ele>3.795123405823262</ele></trkpt><trkpt lat="63.432293" lon="10.3810684"><ele>3.073879892857777</ele></trkpt><trkpt lat="63.4322738" lon="10.3802047"><ele>1.2427370115568048</ele></trkpt><trkpt lat="63.4322354" lon="10.3795288"><ele>0.1485148207513001</ele></trkpt><trkpt lat="63.4321562" lon="10.3792552"><ele>0.66101175421722</ele></trkpt><trkpt lat="63.4319834" lon="10.3787724"><ele>1.6334031640906006</ele></trkpt><trkpt lat="63.4314868" lon="10.3780857"><ele>3.3480211666753155</ele></trkpt><trkpt lat="63.4314148" lon="10.3778819"><ele>3.491024202701733</ele></trkpt><trkpt lat="63.4312684" lon="10.3771148"><ele>3.9502598908334248</ele></trkpt><trkpt lat="63.4312133" lon="10.3766159"><ele>4.233222534642991</ele></trkpt><trkpt lat="63.4311845" lon="10.3740302"><ele>4.727012643746416</ele></trkpt><trkpt lat="63.4311849" lon="10.3740238"><ele>4.729204814340887</ele></trkpt><trkpt lat="63.4313748" lon="10.3721469"><ele>5.475382174459005</ele></trkpt><trkpt lat="63.4314275" lon="10.3713154"><ele>5.948433950259371</ele></trkpt><trkpt lat="63.4315835" lon="10.3684937"><ele>6.888349352162863</ele></trkpt><trkpt lat="63.4316171" lon="10.3664713"><ele>6.275571571931009</ele></trkpt><trkpt lat="63.43119" lon="10.3664338"><ele>8.443022442109697</ele></trkpt><trkpt lat="63.4312164" lon="10.3669273"><ele>9.570293339483964</ele></trkpt><trkpt lat="63.4310197" lon="10.370323"><ele>11.276993127845522</ele></trkpt><trkpt lat="63.4305662" lon="10.3736543"><ele>10.617484532399367</ele></trkpt><trkpt lat="63.42998816463337" lon="10.373380494564271"><ele>12.416551915458692</ele></trkpt><trkpt lat="63.4296856" lon="10.3729623"><ele>13.132735773295165</ele></trkpt><trkpt lat="63.4291649" lon="10.371884"><ele>14.170427277193864</ele></trkpt><trkpt lat="63.4290977" lon="10.3716963"><ele>14.510902914282774</ele></trkpt><trkpt lat="63.4290425" lon="10.3714442"><ele>14.90840126223795</ele></trkpt><trkpt lat="63.4288745" lon="10.3712242"><ele>15.524825473228034</ele></trkpt><trkpt lat="63.4287594" lon="10.3710096"><ele>15.999333805792096</ele></trkpt><trkpt lat="63.4281403" lon="10.3702103"><ele>16.121886036186496</ele></trkpt><trkpt lat="63.4277299" lon="10.3698456"><ele>15.283344100837011</ele></trkpt><trkpt lat="63.4271876" lon="10.369631"><ele>15.3208435307681</ele></trkpt><trkpt lat="63.4267605" lon="10.3696793"><ele>15.466282931706377</ele></trkpt><trkpt lat="63.4264389" lon="10.3698938"><ele>15.994733730332818</ele></trkpt><trkpt lat="63.4259709" lon="10.370323"><ele>16.79125188798964</ele></trkpt><trkpt lat="63.4254886" lon="10.3710901"><ele>14.600740070107507</ele></trkpt><trkpt lat="63.4251358" lon="10.3720611"><ele>13.447333943860247</ele></trkpt><trkpt lat="63.4249918" lon="10.3726619"><ele>13.579487552638806</ele></trkpt><trkpt lat="63.4247494" lon="10.3731983"><ele>13.727316546351412</ele></trkpt><trkpt lat="63.424489" lon="10.3735819"><ele>12.25877034500972</ele></trkpt><trkpt lat="63.4240162" lon="10.3741612"><ele>9.528032045923675</ele></trkpt><trkpt lat="63.4238494" lon="10.3743168"><ele>9.140313833255135</ele></trkpt><trkpt lat="63.4233382" lon="10.3746709"><ele>8.96902898832636</ele></trkpt><trkpt lat="63.4227622" lon="10.3749927"><ele>8.462537344681127</ele></trkpt><trkpt lat="63.421831" lon="10.3757867"><ele>7.690041355926673</ele></trkpt><trkpt lat="63.4212766" lon="10.3763499"><ele>8.13350802447855</ele></trkpt><trkpt lat="63.4200956" lon="10.3771814"><ele>10.27675732690194</ele></trkpt><trkpt lat="63.4174096" lon="10.3790053"><ele>19.856483673075715</ele></trkpt><trkpt lat="63.4162957" lon="10.3797349"><ele>22.49571201715142</ele></trkpt><trkpt lat="63.4161709" lon="10.3799173"><ele>22.87106855180435</ele></trkpt><trkpt lat="63.4157244" lon="10.380915"><ele>25.505756063314276</ele></trkpt><trkpt lat="63.4155371" lon="10.3811403"><ele>26.074005836253008</ele></trkpt><trkpt lat="63.4152251" lon="10.3813335"><ele>24.92963760597997</ele></trkpt><trkpt lat="63.4145817" lon="10.3815159"><ele>23.299207057125493</ele></trkpt><trkpt lat="63.4139142" lon="10.3818592"><ele>24.87797115782285</ele></trkpt><trkpt lat="63.4131076" lon="10.3821167"><ele>25.42262233148665</ele></trkpt><trkpt lat="63.4129971" lon="10.3822669"><ele>25.478769260480032</ele></trkpt><trkpt lat="63.4130451" lon="10.3836616"><ele>24.332986795810218</ele></trkpt><trkpt lat="63.4129299" lon="10.3836938"><ele>24.093502971035313</ele></trkpt><trkpt lat="63.4122192" lon="10.3834578"><ele>22.979751049804815</ele></trkpt><trkpt lat="63.4122336" lon="10.3838547"><ele>22.74290958201776</ele></trkpt><trkpt lat="63.4121712" lon="10.3841552"><ele>22.545879007614115</ele></trkpt><trkpt lat="63.4119743" lon="10.3842732"><ele>22.73891745424846</ele></trkpt><trkpt lat="63.4117775" lon="10.3843268"><ele>23.172732739152682</ele></trkpt><trkpt lat="63.4115518" lon="10.3847989"><ele>23.849251640971346</ele></trkpt><trkpt lat="63.41149768614477" lon="10.384991457020831"><ele>24.071928191729366</ele></trkpt><trkpt lat="63.411438" lon="10.384939"><ele>24.21227170342068</ele></trkpt><trkpt lat="63.411402" lon="10.384919"><ele>24.293443792413335</ele></trkpt><trkpt lat="63.411356" lon="10.384912"><ele>24.394331815449156</ele></trkpt><trkpt lat="63.411316" lon="10.384922"><ele>24.440995146475156</ele></trkpt><trkpt lat="63.411303" lon="10.384928"><ele>24.450629867776364</ele></trkpt><trkpt lat="63.411277" lon="10.384941"><ele>24.469967648788582</ele></trkpt><trkpt lat="63.411216" lon="10.384954"><ele>24.514442878175164</ele></trkpt><trkpt lat="63.411179" lon="10.384947"><ele>24.541393870106543</ele></trkpt><trkpt lat="63.411153" lon="10.384936"><ele>24.560600230515906</ele></trkpt><trkpt lat="63.411148" lon="10.384934"><ele>24.56428697127012</ele></trkpt><trkpt lat="63.411103" lon="10.384904"><ele>24.59837134689396</ele></trkpt><trkpt lat="63.4108459" lon="10.3844556"><ele>24.835100669607094</ele></trkpt><trkpt lat="63.410649" lon="10.3840801"><ele>25.02299561132046</ele></trkpt><trkpt lat="63.4103032" lon="10.3839835"><ele>24.747174210843035</ele></trkpt><trkpt lat="63.409919" lon="10.3841981"><ele>24.282156144635998</ele></trkpt><trkpt lat="63.4096597" lon="10.3840586"><ele>23.93156272262063</ele></trkpt><trkpt lat="63.4094292" lon="10.3841659"><ele>23.43834922240337</ele></trkpt><trkpt lat="63.4084495" lon="10.3854855"><ele>20.824799939384445</ele></trkpt><trkpt lat="63.4079548" lon="10.385861"><ele>19.21558862325445</ele></trkpt><trkpt lat="63.4074986" lon="10.385904"><ele>17.113755886181796</ele></trkpt><trkpt lat="63.4071672" lon="10.3857323"><ele>15.462998099922197</ele></trkpt><trkpt lat="63.4069607" lon="10.3858825"><ele>13.981530566931696</ele></trkpt><trkpt lat="63.4059761" lon="10.3872021"><ele>7.634510891077853</ele></trkpt><trkpt lat="63.4057167" lon="10.3875025"><ele>6.503983006136787</ele></trkpt><trkpt lat="63.4053565" lon="10.3876849"><ele>6.5680299089723695</ele></trkpt><trkpt lat="63.4045928" lon="10.3878566"><ele>8.120981809261888</ele></trkpt><trkpt lat="63.4043334" lon="10.3878673"><ele>8.95256771141497</ele></trkpt><trkpt lat="63.4041269" lon="10.3873845"><ele>9.910728021572819</ele></trkpt><trkpt lat="63.4034064" lon="10.3880926"><ele>11.56192243742105</ele></trkpt><trkpt lat="63.4028204" lon="10.3885218"><ele>11.695487731325409</ele></trkpt><trkpt lat="63.4024169" lon="10.3887578"><ele>11.105301655197612</ele></trkpt><trkpt lat="63.4022272" lon="10.3887525"><ele>10.83686313132312</ele></trkpt><trkpt lat="63.4014874" lon="10.3884628"><ele>10.406411872968935</ele></trkpt><trkpt lat="63.4002144" lon="10.3884574"><ele>8.060669536771695</ele></trkpt><trkpt lat="63.3992272" lon="10.3881677"><ele>8.692685511404854</ele></trkpt><trkpt lat="63.3982832" lon="10.3875937"><ele>8.545337007271879</ele></trkpt><trkpt lat="63.3975409" lon="10.3873041"><ele>7.87333712667767</ele></trkpt><trkpt lat="63.3972454" lon="10.3870251"><ele>8.26445367298333</ele></trkpt><trkpt lat="63.3967578" lon="10.3863599"><ele>9.753470595470201</ele></trkpt><trkpt lat="63.3960803" lon="10.385743"><ele>12.338902937186672</ele></trkpt><trkpt lat="63.3955158" lon="10.3856304"><ele>9.31301697378662</ele></trkpt><trkpt lat="63.395475" lon="10.3858932"><ele>8.647980730058979</ele></trkpt><trkpt lat="63.3957488" lon="10.3873255"><ele>17.54049337993989</ele></trkpt><trkpt lat="63.3958713" lon="10.3876367"><ele>20.725133691299366</ele></trkpt><trkpt lat="63.3963326" lon="10.3881034"><ele>22.752944176474</ele></trkpt><trkpt lat="63.3968515" lon="10.3887739"><ele>21.817308418065704</ele></trkpt><trkpt lat="63.3971734" lon="10.3893533"><ele>22.032486196454162</ele></trkpt><trkpt lat="63.3975169" lon="10.3898736"><ele>22.24850477621048</ele></trkpt><trkpt lat="63.39811111500242" lon="10.390543448555373"><ele>24.086503147824374</ele></trkpt><trkpt lat="63.398778" lon="10.3919175"><ele>26.72785361917789</ele></trkpt><trkpt lat="63.3998085" lon="10.3933605"><ele>29.960390214947406</ele></trkpt><trkpt lat="63.4005627" lon="10.3940579"><ele>32.34562676162374</ele></trkpt><trkpt lat="63.4016651" lon="10.3948143"><ele>34.5241224296286</ele></trkpt><trkpt lat="63.4041557" lon="10.3960159"><ele>35.459151089522706</ele></trkpt><trkpt lat="63.405198" lon="10.3965362"><ele>33.60720492062148</ele></trkpt><trkpt lat="63.4066461" lon="10.3971531"><ele>29.894790453042404</ele></trkpt><trkpt lat="63.4071024" lon="10.3970298"><ele>29.817792096955632</ele></trkpt><trkpt lat="63.407549" lon="10.3966972"><ele>30.022389731640015</ele></trkpt><trkpt lat="63.4077507" lon="10.3966703"><ele>29.35778688857391</ele></trkpt><trkpt lat="63.4083727" lon="10.3969868"><ele>26.566857146191015</ele></trkpt><trkpt lat="63.4087377" lon="10.3972282"><ele>26.146971447658974</ele></trkpt><trkpt lat="63.4096765" lon="10.397711"><ele>26.773045385166267</ele></trkpt><trkpt lat="63.410769" lon="10.3979846"><ele>26.58667947592629</ele></trkpt><trkpt lat="63.4112564" lon="10.39799"><ele>26.029210525765667</ele></trkpt><trkpt lat="63.4115566" lon="10.3978505"><ele>26.4345797724713</ele></trkpt><trkpt lat="63.4119023" lon="10.3978505"><ele>26.891608547190973</ele></trkpt><trkpt lat="63.4121952" lon="10.3977969"><ele>26.858944111156625</ele></trkpt><trkpt lat="63.4124329" lon="10.3976252"><ele>26.56815918245222</ele></trkpt><trkpt lat="63.4126442" lon="10.3976145"><ele>26.32214112378314</ele></trkpt><trkpt lat="63.4129443" lon="10.3975716"><ele>25.976243871390423</ele></trkpt><trkpt lat="63.4132012" lon="10.3974804"><ele>25.7082550968303</ele></trkpt><trkpt lat="63.4136862" lon="10.397416"><ele>25.207706568687033</ele></trkpt><trkpt lat="63.4141759" lon="10.3972604"><ele>24.194341669039037</ele></trkpt><trkpt lat="63.4149226" lon="10.3968903"><ele>23.40237408000203</ele></trkpt><trkpt lat="63.4160005" lon="10.3962305"><ele>23.600418377561734</ele></trkpt><trkpt lat="63.4161685" lon="10.3959354"><ele>23.065840531780058</ele></trkpt><trkpt lat="63.4178321" lon="10.3950932"><ele>22.062749204859195</ele></trkpt><trkpt lat="63.419666" lon="10.3941383"><ele>18.805459859626996</ele></trkpt><trkpt lat="63.4203717" lon="10.3938326"><ele>17.396524628838446</ele></trkpt><trkpt lat="63.4209261" lon="10.3935429"><ele>16.36916369712853</ele></trkpt><trkpt lat="63.4213522" lon="10.3938218"><ele>16.710042974169898</ele></trkpt><trkpt lat="63.4221646" lon="10.3937816"><ele>16.0539527758968</ele></trkpt><trkpt lat="63.4226818" lon="10.3940713"><ele>15.044844764513599</ele></trkpt><trkpt lat="63.4227778" lon="10.3939184"><ele>14.790012240052876</ele></trkpt><trkpt lat="63.4228174" lon="10.3931164"><ele>14.00961186373833</ele></trkpt><trkpt lat="63.422881" lon="10.3914803"><ele>12.752292913989386</ele></trkpt><trkpt lat="63.4228966" lon="10.389364"><ele>11.426492844884748</ele></trkpt><trkpt lat="63.423157" lon="10.3886747"><ele>10.867105399360188</ele></trkpt><trkpt lat="63.4233766" lon="10.3881624"><ele>11.781623544844608</ele></trkpt><trkpt lat="63.423985" lon="10.3861078"><ele>10.869997499422478</ele></trkpt><trkpt lat="63.4247218" lon="10.3845253"><ele>7.912033259257359</ele></trkpt><trkpt lat="63.4248082" lon="10.3842919"><ele>7.710662840640911</ele></trkpt><trkpt lat="63.42505301560005" lon="10.383395173738787"><ele>7.650993366926913</ele></trkpt><trkpt lat="63.425534" lon="10.381326"><ele>7.069852429473633</ele></trkpt><trkpt lat="63.425562" lon="10.381355"><ele>7.018374447217052</ele></trkpt><trkpt lat="63.425572" lon="10.381365"><ele>7.000099901886172</ele></trkpt><trkpt lat="63.425665" lon="10.381457"><ele>6.8304500546552855</ele></trkpt><trkpt lat="63.425801" lon="10.381603"><ele>6.578776884756952</ele></trkpt><trkpt lat="63.425927" lon="10.381735"><ele>6.367972554383237</ele></trkpt><trkpt lat="63.426062" lon="10.38188"><ele>6.329356018059872</ele></trkpt><trkpt lat="63.426062" lon="10.38188"><ele>6.329356018059872</ele></trkpt><trkpt lat="63.42619" lon="10.382014"><ele>6.292913964114356</ele></trkpt><trkpt lat="63.426286" lon="10.382101"><ele>6.266205576144603</ele></trkpt><trkpt lat="63.426308" lon="10.382107"><ele>6.26049125909771</ele></trkpt><trkpt lat="63.42634" lon="10.382105"><ele>6.25223747905023</ele></trkpt><trkpt lat="63.426379" lon="10.382081"><ele>6.241808048569731</ele></trkpt><trkpt lat="63.42644" lon="10.382054"><ele>6.225775079032566</ele></trkpt><trkpt lat="63.426477" lon="10.382047"><ele>6.2162012695002815</ele></trkpt><trkpt lat="63.426512" lon="10.382057"><ele>6.20710381346102</ele></trkpt><trkpt lat="63.426552" lon="10.382081"><ele>6.196425585562078</ele></trkpt><trkpt lat="63.426579" lon="10.382136"><ele>6.187007366621881</ele></trkpt><trkpt lat="63.426614" lon="10.382223"><ele>6.1735120408677755</ele></trkpt><trkpt lat="63.426537" lon="10.382381"><ele>6.1465633068858825</ele></trkpt><trkpt lat="63.426439" lon="10.382573"><ele>6.228544041779372</ele></trkpt><trkpt lat="63.426303" lon="10.38284"><ele>6.383446061484897</ele></trkpt><trkpt lat="63.426289" lon="10.382869"><ele>6.399780348384609</ele></trkpt><trkpt lat="63.426106" lon="10.383194"><ele>6.599800125409296</ele></trkpt><trkpt lat="63.425763" lon="10.383747"><ele>6.9351229493299735</ele></trkpt><trkpt lat="63.4256314" lon="10.384013"><ele>7.008470540030907</ele></trkpt><trkpt lat="63.4245874" lon="10.3861293"><ele>7.160161756905867</ele></trkpt><trkpt lat="63.4243942" lon="10.3866121"><ele>7.590464514944005</ele></trkpt><trkpt lat="63.4240186" lon="10.388047"><ele>10.082845195987675</ele></trkpt><trkpt lat="63.4238146" lon="10.3891011"><ele>9.99881087346368</ele></trkpt><trkpt lat="63.4236322" lon="10.3902545"><ele>9.976026063575183</ele></trkpt><trkpt lat="63.4233262" lon="10.3929608"><ele>8.654506662984893</ele></trkpt><trkpt lat="63.4232014" lon="10.3938567"><ele>7.043255379623136</ele></trkpt><trkpt lat="63.423211" lon="10.3942912"><ele>6.516226505598939</ele></trkpt><trkpt lat="63.4232374" lon="10.3946292"><ele>6.100553787114437</ele></trkpt><trkpt lat="63.4232014" lon="10.3955089"><ele>5.030367659891619</ele></trkpt><trkpt lat="63.4232002" lon="10.3973784"><ele>5.0189383345187375</ele></trkpt><trkpt lat="63.423445" lon="10.3986015"><ele>5.365390984841941</ele></trkpt><trkpt lat="63.423805" lon="10.3998273"><ele>5.622663245167424</ele></trkpt><trkpt lat="63.4241986" lon="10.4006937"><ele>5.460072740785408</ele></trkpt><trkpt lat="63.4254058" lon="10.402472"><ele>7.532372867081222</ele></trkpt><trkpt lat="63.425587" lon="10.4028367"><ele>8.903447434456908</ele></trkpt><trkpt lat="63.425563" lon="10.4035073"><ele>10.595769425436856</ele></trkpt><trkpt lat="63.4260981" lon="10.4037004"><ele>9.428299085645719</ele></trkpt><trkpt lat="63.4269296" lon="10.4033142"><ele>9.840296879811303</ele></trkpt><trkpt lat="63.4273424" lon="10.403164"><ele>10.992636307907365</ele></trkpt><trkpt lat="63.4277827" lon="10.4030647"><ele>8.125500092184321</ele></trkpt><trkpt lat="63.4280131" lon="10.4029333"><ele>6.547630247762803</ele></trkpt><trkpt lat="63.4280695" lon="10.4028046"><ele>6.0128241164770335</ele></trkpt><trkpt lat="63.4281895" lon="10.4017987"><ele>6.222803173809064</ele></trkpt><trkpt lat="63.4283514" lon="10.4002189"><ele>9.109410583015631</ele></trkpt><trkpt lat="63.4283178" lon="10.4000553"><ele>9.516888173280233</ele></trkpt><trkpt lat="63.4281031" lon="10.3999185"><ele>10.646580264536096</ele></trkpt><trkpt lat="63.4279519" lon="10.3998005"><ele>11.456965036787011</ele></trkpt><trkpt lat="63.4279159" lon="10.3996315"><ele>11.880664524926761</ele></trkpt><trkpt lat="63.4276951" lon="10.3965657"><ele>13.64978757342868</ele></trkpt><trkpt lat="63.4285998" lon="10.3960561"><ele>13.89872034814463</ele></trkpt><trkpt lat="63.4291985" lon="10.3957503"><ele>13.200441846155982</ele></trkpt><trkpt lat="63.4300479" lon="10.3952836"><ele>10.54536724090576</ele></trkpt></trkseg></trk></gpx>